{"type": "FeatureCollection", "features": [{"type": "Feature", "properties": {"ime": "Bihać"}, "geometry": {"type": "Polygon", "coordinates": [[[16.14245, 44.72792], [16.13648, 44.72795], [16.13343, 44.73079], [16.12943, 44.73296], [16.12256, 44.73851], [16.11303, 44.7442], [16.10101, 44.75517], [16.08255, 44.78149], [16.07511, 44.78825], [16.06998, 44.79041], [16.06388, 44.7911], [16.04399, 44.78989], [16.03667, 44.78868], [16.02581, 44.78972], [16.01406, 44.79199], [16.00891, 44.79876], [16.00681, 44.80431], [16.00548, 44.81107], [16.0051, 44.81689], [16.00738, 44.82825], [16.00224, 44.84055], [16.00311, 44.84962], [16.0114, 44.85914], [16.01592, 44.86191], [16.02751, 44.86148], [16.0352, 44.86009], [16.04277, 44.85776], [16.05314, 44.85905], [16.06486, 44.86269], [16.06986, 44.86511], [16.07047, 44.86909], [16.06937, 44.87203], [16.06681, 44.87462], [16.06669, 44.87765], [16.06815, 44.87955], [16.07755, 44.88509], [16.07779, 44.88733], [16.07548, 44.89053], [16.06244, 44.89827], [16.06193, 44.89754], [16.05558, 44.89676], [16.04277, 44.90108], [16.03142, 44.90272], [16.02227, 44.90281], [16.00591, 44.89978], [16.00127, 44.89918], [15.99786, 44.89944], [15.99285, 44.90074], [15.9848, 44.90679], [15.97443, 44.9073], [15.95148, 44.90385], [15.94025, 44.89762], [15.93208, 44.89053], [15.92085, 44.88396], [15.90572, 44.88267], [15.89986, 44.88474], [15.89583, 44.88785], [15.89392, 44.8938], [15.88954, 44.89772], [15.88573, 44.89988], [15.88058, 44.90015], [15.87161, 44.89677], [15.86837, 44.89623], [15.86418, 44.89664], [15.86094, 44.89813], [15.85617, 44.90191], [15.84988, 44.91082], [15.84644, 44.91906], [15.85045, 44.92716], [15.85693, 44.9327], [15.85693, 44.93634], [15.85255, 44.93998], [15.84072, 44.94646], [15.83462, 44.94781], [15.83214, 44.94687], [15.8289, 44.94417], [15.82394, 44.93823], [15.81841, 44.93499], [15.81307, 44.93283], [15.80239, 44.92608], [15.79801, 44.92608], [15.79458, 44.92797], [15.79133, 44.93162], [15.77551, 44.95159], [15.77246, 44.96104], [15.77116, 44.96785], [15.76511, 44.96761], [15.75597, 44.96545], [15.75326, 44.96306], [15.75207, 44.9585], [15.7519, 44.95156], [15.75106, 44.9476], [15.74767, 44.94485], [15.73819, 44.94125], [15.73751, 44.93802], [15.73904, 44.93454], [15.74158, 44.93035], [15.74479, 44.92196], [15.74801, 44.91872], [15.75207, 44.91081], [15.76037, 44.88203], [15.77188, 44.86367], [15.79096, 44.84932], [15.79069, 44.8452], [15.7854, 44.84051], [15.77905, 44.83751], [15.74996, 44.83638], [15.73858, 44.83076], [15.72774, 44.82644], [15.7243, 44.8225], [15.72695, 44.81556], [15.73197, 44.80749], [15.7773, 44.75859], [15.78779, 44.7438], [15.79829, 44.73851], [15.81505, 44.73286], [15.81759, 44.73117], [15.82063, 44.72492], [15.82588, 44.71902], [15.82842, 44.7171], [15.83164, 44.71638], [15.83722, 44.71662], [15.83909, 44.71794], [15.84467, 44.72684], [15.84907, 44.72973], [15.855, 44.72877], [15.86245, 44.72624], [15.87007, 44.72708], [15.87514, 44.72937], [15.88022, 44.7337], [15.88479, 44.73959], [15.89106, 44.74428], [15.90088, 44.74632], [15.9151, 44.74584], [15.91865, 44.7444], [15.92187, 44.74127], [15.91713, 44.73514], [15.9195, 44.72901], [15.92305, 44.72227], [15.92416, 44.71658], [15.92871, 44.71027], [15.93121, 44.70927], [15.93586, 44.70988], [15.93976, 44.71165], [15.94486, 44.7125], [15.9506, 44.71235], [15.95688, 44.71011], [15.97584, 44.69479], [15.98288, 44.68832], [15.98126, 44.6783], [15.98299, 44.67199], [15.98592, 44.66783], [15.99372, 44.66451], [16.01896, 44.65943], [16.03007, 44.65867], [16.03774, 44.65585], [16.04489, 44.64982], [16.04912, 44.64531], [16.05414, 44.63816], [16.0589, 44.62987], [16.06181, 44.61801], [16.05996, 44.61086], [16.05414, 44.60446], [16.04568, 44.59711], [16.03431, 44.59033], [16.02425, 44.58637], [16.02029, 44.58298], [16.01976, 44.57507], [16.0396, 44.55943], [16.04541, 44.55924], [16.0552, 44.55755], [16.06393, 44.55491], [16.07292, 44.55133], [16.08588, 44.53964], [16.10017, 44.53096], [16.10622, 44.52322], [16.10774, 44.51924], [16.11502, 44.50922], [16.12467, 44.50488], [16.13043, 44.49824], [16.12721, 44.49413], [16.12637, 44.49063], [16.12633, 44.48601], [16.12936, 44.48052], [16.13825, 44.47147], [16.14388, 44.46312], [16.14432, 44.45199], [16.14562, 44.44789], [16.14562, 44.44557], [16.1389, 44.43621], [16.13912, 44.43211], [16.14215, 44.42638], [16.1467, 44.41973], [16.15418, 44.41671], [16.16403, 44.41392], [16.16902, 44.40928], [16.17021, 44.40587], [16.16967, 44.40038], [16.16479, 44.39635], [16.12785, 44.39457], [16.12503, 44.39279], [16.12622, 44.38946], [16.13229, 44.38489], [16.15732, 44.37018], [16.16598, 44.36577], [16.17574, 44.36437], [16.18289, 44.36205], [16.19296, 44.35748], [16.20228, 44.35206], [16.20846, 44.34741], [16.20915, 44.34081], [16.20644, 44.33754], [16.18308, 44.32216], [16.18138, 44.31138], [16.18223, 44.30617], [16.18714, 44.29769], [16.18815, 44.28885], [16.19425, 44.28061], [16.19323, 44.25612], [16.19391, 44.24836], [16.1956, 44.24509], [16.20458, 44.2446], [16.21669, 44.24273], [16.2193, 44.2446], [16.22929, 44.24812], [16.23708, 44.24909], [16.24402, 44.25139], [16.24724, 44.25467], [16.24537, 44.25976], [16.23268, 44.27624], [16.22912, 44.28], [16.23268, 44.28521], [16.23843, 44.28909], [16.243, 44.29757], [16.24842, 44.30048], [16.26044, 44.30969], [16.26823, 44.31066], [16.27838, 44.30993], [16.28702, 44.3115], [16.29413, 44.31926], [16.30807, 44.32507], [16.31019, 44.33131], [16.31019, 44.34361], [16.31151, 44.35137], [16.31469, 44.35685], [16.31032, 44.36913], [16.30991, 44.37858], [16.29958, 44.39483], [16.2971, 44.40457], [16.29296, 44.4093], [16.29875, 44.41195], [16.30495, 44.41343], [16.30412, 44.42081], [16.29916, 44.42524], [16.2922, 44.4351], [16.29167, 44.45813], [16.28929, 44.46323], [16.28823, 44.47305], [16.28929, 44.48192], [16.29088, 44.48984], [16.29162, 44.49028], [16.27143, 44.5044], [16.24819, 44.51183], [16.21959, 44.52288], [16.18206, 44.54164], [16.15021, 44.55917], [16.13248, 44.57588], [16.12332, 44.5824], [16.10616, 44.58729], [16.10139, 44.59177], [16.09892, 44.5991], [16.09281, 44.63399], [16.08843, 44.64674], [16.08728, 44.65379], [16.08538, 44.65963], [16.08633, 44.66451], [16.08862, 44.66966], [16.09243, 44.67265], [16.09853, 44.67414], [16.1054, 44.67251], [16.1094, 44.65949], [16.11245, 44.65379], [16.1157, 44.64973], [16.12123, 44.64674], [16.13286, 44.64376], [16.13991, 44.64321], [16.14468, 44.64389], [16.14888, 44.64755], [16.15021, 44.65339], [16.15002, 44.6641], [16.14888, 44.67034], [16.14983, 44.67441], [16.15479, 44.67766], [16.16604, 44.6797], [16.16794, 44.68133], [16.16774, 44.68682], [16.16396, 44.69315], [16.16298, 44.7092], [16.16078, 44.71319], [16.15724, 44.71649], [16.14699, 44.72299], [16.14245, 44.72792]]]}}, {"type": "Feature", "properties": {"ime": "Cazin"}, "geometry": {"type": "Polygon", "coordinates": [[[16.06193, 44.89754], [16.06425, 44.90091], [16.05912, 44.90973], [16.05924, 44.9156], [16.06083, 44.92096], [16.06474, 44.92597], [16.07255, 44.93116], [16.07279, 44.95992], [16.06083, 44.97149], [16.03471, 44.98643], [16.02901, 44.99279], [16.02507, 44.99221], [16.02105, 44.99273], [16.01751, 44.9954], [16.01629, 44.99808], [16.01494, 45.01671], [16.00518, 45.02258], [15.9931, 45.02551], [15.98687, 45.03397], [15.98126, 45.03983], [15.97418, 45.04569], [15.96771, 45.04949], [15.96, 45.05648], [15.94807, 45.05207], [15.94196, 45.05173], [15.93586, 45.05337], [15.93, 45.05656], [15.91914, 45.06414], [15.90632, 45.07427], [15.89679, 45.08046], [15.89297, 45.08181], [15.88916, 45.07979], [15.88744, 45.07642], [15.88706, 45.07238], [15.88553, 45.07023], [15.84244, 45.07359], [15.83882, 45.07171], [15.83843, 45.06619], [15.84053, 45.0639], [15.84225, 45.06026], [15.84091, 45.05905], [15.83462, 45.0573], [15.8249, 45.05676], [15.81498, 45.05824], [15.80983, 45.06012], [15.80487, 45.06605], [15.80011, 45.07494], [15.7961, 45.07777], [15.79286, 45.07763], [15.78409, 45.0705], [15.77932, 45.06928], [15.76489, 45.07012], [15.75942, 45.07249], [15.75736, 45.07018], [15.75102, 45.06719], [15.74202, 45.06065], [15.74176, 45.05561], [15.74573, 45.05243], [15.74666, 45.04828], [15.74615, 45.04552], [15.74699, 45.04182], [15.75343, 45.02997], [15.76088, 45.02291], [15.76325, 45.01909], [15.7668, 45.01585], [15.78322, 45.0058], [15.78627, 45.00305], [15.78576, 44.99982], [15.78238, 44.99634], [15.77594, 44.9918], [15.77442, 44.98808], [15.77899, 44.98377], [15.78153, 44.97934], [15.78034, 44.9718], [15.77848, 44.96821], [15.77116, 44.96785], [15.7715, 44.96482], [15.77551, 44.95159], [15.79133, 44.93162], [15.79458, 44.92797], [15.79801, 44.92608], [15.80239, 44.92608], [15.81307, 44.93283], [15.81841, 44.93499], [15.82394, 44.93823], [15.8289, 44.94417], [15.83214, 44.94687], [15.83462, 44.94781], [15.84072, 44.94646], [15.85255, 44.93998], [15.85693, 44.93634], [15.85693, 44.9327], [15.85045, 44.92716], [15.84644, 44.91906], [15.84988, 44.91082], [15.85617, 44.90191], [15.86094, 44.89813], [15.86418, 44.89664], [15.86837, 44.89623], [15.87161, 44.89677], [15.88058, 44.90015], [15.88573, 44.89988], [15.88954, 44.89772], [15.89392, 44.8938], [15.89583, 44.88785], [15.89986, 44.88474], [15.90572, 44.88267], [15.92085, 44.88396], [15.93208, 44.89053], [15.94025, 44.89762], [15.95148, 44.90385], [15.97443, 44.9073], [15.9848, 44.90679], [15.99285, 44.90074], [15.99786, 44.89944], [16.00127, 44.89918], [16.00591, 44.89978], [16.02227, 44.90281], [16.03142, 44.90272], [16.04277, 44.90108], [16.05558, 44.89676], [16.06193, 44.89754]]]}}, {"type": "Feature", "properties": {"ime": "Sanski Most"}, "geometry": {"type": "Polygon", "coordinates": [[[16.38622, 44.84065], [16.39217, 44.83535], [16.39498, 44.83041], [16.39571, 44.82046], [16.39449, 44.81552], [16.39132, 44.81206], [16.3879, 44.81024], [16.37655, 44.81397], [16.36776, 44.81397], [16.3641, 44.81293], [16.36081, 44.81059], [16.35368, 44.79849], [16.3491, 44.79335], [16.34567, 44.79159], [16.33766, 44.78902], [16.33327, 44.78563], [16.32755, 44.77846], [16.3224, 44.77047], [16.3205, 44.766], [16.32011, 44.76235], [16.3245, 44.75436], [16.32469, 44.75097], [16.32717, 44.7442], [16.3367, 44.73377], [16.36397, 44.71088], [16.38476, 44.70112], [16.40783, 44.69271], [16.41317, 44.68946], [16.41737, 44.68241], [16.41832, 44.67563], [16.42061, 44.67156], [16.43472, 44.66085], [16.4536, 44.65081], [16.49631, 44.63806], [16.51595, 44.63697], [16.52849, 44.63319], [16.52835, 44.63385], [16.53254, 44.63914], [16.54112, 44.6462], [16.55485, 44.65583], [16.56477, 44.66126], [16.57297, 44.6641], [16.58613, 44.666], [16.59795, 44.66641], [16.61282, 44.66492], [16.62217, 44.6599], [16.63075, 44.65257], [16.64085, 44.65013], [16.65592, 44.64945], [16.66297, 44.64661], [16.67117, 44.64172], [16.68014, 44.63969], [16.69196, 44.64009], [16.7035, 44.64411], [16.70997, 44.64368], [16.71436, 44.64272], [16.73242, 44.63352], [16.73755, 44.63213], [16.74658, 44.6323], [16.74939, 44.63778], [16.74926, 44.64272], [16.74817, 44.64828], [16.74829, 44.65306], [16.75158, 44.65853], [16.76074, 44.66651], [16.76213, 44.67319], [16.76652, 44.67577], [16.77205, 44.67604], [16.77491, 44.67414], [16.77987, 44.66939], [16.78692, 44.65949], [16.79054, 44.65542], [16.80046, 44.64878], [16.80351, 44.64294], [16.80656, 44.63914], [16.81038, 44.63738], [16.81591, 44.6386], [16.81991, 44.64118], [16.82525, 44.64335], [16.85133, 44.63897], [16.848, 44.64455], [16.84649, 44.64864], [16.84768, 44.66066], [16.84746, 44.6706], [16.84053, 44.67738], [16.83294, 44.67992], [16.80922, 44.68131], [16.80434, 44.68662], [16.80272, 44.69333], [16.80337, 44.69895], [16.80868, 44.71258], [16.80932, 44.7211], [16.8072, 44.7288], [16.79636, 44.75116], [16.78895, 44.75962], [16.78181, 44.76581], [16.77599, 44.77239], [16.77308, 44.7814], [16.77044, 44.79473], [16.76435, 44.79942], [16.75589, 44.80167], [16.73526, 44.80524], [16.72732, 44.80805], [16.71462, 44.81668], [16.70484, 44.81987], [16.67468, 44.81998], [16.6586, 44.81878], [16.64912, 44.8195], [16.64336, 44.82274], [16.61408, 44.84651], [16.6046, 44.85251], [16.59715, 44.85383], [16.58293, 44.84951], [16.5743, 44.85155], [16.56922, 44.85479], [16.56058, 44.85743], [16.55178, 44.85743], [16.54653, 44.85539], [16.53197, 44.85383], [16.48762, 44.85383], [16.4712, 44.85611], [16.43142, 44.86631], [16.41821, 44.86739], [16.40738, 44.86043], [16.3979, 44.85011], [16.38622, 44.84065]]]}}, {"type": "Feature", "properties": {"ime": "Bosanska Krupa"}, "geometry": {"type": "Polygon", "coordinates": [[[16.14245, 44.72792], [16.1483, 44.72876], [16.15383, 44.72754], [16.15917, 44.72754], [16.17157, 44.73079], [16.18251, 44.73894], [16.18324, 44.74206], [16.18543, 44.74622], [16.18934, 44.75116], [16.19312, 44.75316], [16.19825, 44.75428], [16.20557, 44.7542], [16.21424, 44.75047], [16.22424, 44.74848], [16.23132, 44.74761], [16.23999, 44.74804], [16.24768, 44.74986], [16.25366, 44.75324], [16.26342, 44.76026], [16.26903, 44.76026], [16.27306, 44.75957], [16.28624, 44.75116], [16.29466, 44.74926], [16.32499, 44.75017], [16.3245, 44.75436], [16.32011, 44.76235], [16.3205, 44.766], [16.3245, 44.77386], [16.33327, 44.78563], [16.33766, 44.78902], [16.34567, 44.79159], [16.3491, 44.79335], [16.35368, 44.79849], [16.36081, 44.81059], [16.3641, 44.81293], [16.36776, 44.81397], [16.37655, 44.81397], [16.3879, 44.81024], [16.39132, 44.81206], [16.39449, 44.81552], [16.39571, 44.82046], [16.39498, 44.83041], [16.39217, 44.83535], [16.38622, 44.84065], [16.35524, 44.82322], [16.3461, 44.8249], [16.33763, 44.83163], [16.33256, 44.83895], [16.32612, 44.85299], [16.31834, 44.86247], [16.31139, 44.86607], [16.30191, 44.86763], [16.29057, 44.86811], [16.28042, 44.86943], [16.26383, 44.87939], [16.25248, 44.88467], [16.23759, 44.8939], [16.23081, 44.90074], [16.22743, 44.90985], [16.22308, 44.93305], [16.20748, 44.95414], [16.20347, 44.96249], [16.19491, 44.96916], [16.19708, 44.97537], [16.20011, 44.98035], [16.20455, 44.98625], [16.21116, 44.98955], [16.21788, 44.9874], [16.22731, 44.98204], [16.23337, 44.98143], [16.23803, 44.98196], [16.24237, 44.98426], [16.25873, 44.98779], [16.28397, 44.99599], [16.29698, 45.00156], [16.2943, 45.00341], [16.29159, 45.00915], [16.27821, 45.01669], [16.26687, 45.01693], [16.25181, 45.02124], [16.24707, 45.01956], [16.23945, 45.01909], [16.21846, 45.03105], [16.20881, 45.03225], [16.20102, 45.02997], [16.19577, 45.03021], [16.19205, 45.03607], [16.18578, 45.04301], [16.18494, 45.05186], [16.18155, 45.05593], [16.17345, 45.06236], [16.1664, 45.06078], [16.16013, 45.05608], [16.1565, 45.05191], [16.15021, 45.04194], [16.14335, 45.03385], [16.13801, 45.02968], [16.13229, 45.02361], [16.12142, 45.00784], [16.11875, 45.00555], [16.11474, 45.00541], [16.08207, 45.02336], [16.06974, 45.02396], [16.06571, 45.02318], [16.06254, 45.0218], [16.05851, 45.01904], [16.05265, 45.01076], [16.05168, 45.00731], [16.04997, 45.00455], [16.03838, 44.9967], [16.02901, 44.99279], [16.03471, 44.98643], [16.06083, 44.97149], [16.07279, 44.95992], [16.07255, 44.93116], [16.06474, 44.92597], [16.06083, 44.92096], [16.05924, 44.9156], [16.05912, 44.90973], [16.06425, 44.90091], [16.06244, 44.89827], [16.07548, 44.89053], [16.07779, 44.88733], [16.07755, 44.88509], [16.06815, 44.87955], [16.06669, 44.87765], [16.06681, 44.87462], [16.06937, 44.87203], [16.07047, 44.86909], [16.06986, 44.86511], [16.06486, 44.86269], [16.05314, 44.85905], [16.04277, 44.85776], [16.0352, 44.86009], [16.02751, 44.86148], [16.01592, 44.86191], [16.0114, 44.85914], [16.00311, 44.84962], [16.00224, 44.84055], [16.00738, 44.82825], [16.0051, 44.81689], [16.00548, 44.81107], [16.00681, 44.80431], [16.00891, 44.79876], [16.01406, 44.79199], [16.02581, 44.78972], [16.03667, 44.78868], [16.04399, 44.78989], [16.06388, 44.7911], [16.06998, 44.79041], [16.07511, 44.78825], [16.08255, 44.78149], [16.10101, 44.75517], [16.11303, 44.7442], [16.12256, 44.73851], [16.12943, 44.73296], [16.13343, 44.73079], [16.13648, 44.72795], [16.14245, 44.72792]]]}}, {"type": "Feature", "properties": {"ime": "Bosanski Petrovac"}, "geometry": {"type": "Polygon", "coordinates": [[[16.29162, 44.49028], [16.29405, 44.49173], [16.30358, 44.4923], [16.3086, 44.49154], [16.31627, 44.48814], [16.33135, 44.47777], [16.34828, 44.47588], [16.36415, 44.4755], [16.37711, 44.47437], [16.40435, 44.47475], [16.41599, 44.47795], [16.43107, 44.47965], [16.44402, 44.47908], [16.43954, 44.48664], [16.43751, 44.49268], [16.44204, 44.50857], [16.4467, 44.51506], [16.45569, 44.52418], [16.46241, 44.5285], [16.46956, 44.5309], [16.48238, 44.53417], [16.52973, 44.53605], [16.54216, 44.53587], [16.55671, 44.53228], [16.56967, 44.53342], [16.58845, 44.53398], [16.59877, 44.53059], [16.61357, 44.52793], [16.64861, 44.52564], [16.65535, 44.52631], [16.64943, 44.53145], [16.64734, 44.53539], [16.65365, 44.54223], [16.6538, 44.54546], [16.65255, 44.54824], [16.6467, 44.5503], [16.62334, 44.55509], [16.59947, 44.56501], [16.57831, 44.57167], [16.55199, 44.59449], [16.54532, 44.60195], [16.5415, 44.60983], [16.52949, 44.62856], [16.52849, 44.63319], [16.51595, 44.63697], [16.49631, 44.63806], [16.4536, 44.65081], [16.43472, 44.66085], [16.42061, 44.67156], [16.41832, 44.67563], [16.41737, 44.68241], [16.41317, 44.68946], [16.40783, 44.69271], [16.38476, 44.70112], [16.36397, 44.71088], [16.3367, 44.73377], [16.32717, 44.7442], [16.32499, 44.75017], [16.29466, 44.74926], [16.28624, 44.75116], [16.27306, 44.75957], [16.26903, 44.76026], [16.26342, 44.76026], [16.25366, 44.75324], [16.24768, 44.74986], [16.23999, 44.74804], [16.23132, 44.74761], [16.22424, 44.74848], [16.21424, 44.75047], [16.20557, 44.7542], [16.19825, 44.75428], [16.19312, 44.75316], [16.18934, 44.75116], [16.18543, 44.74622], [16.18324, 44.74206], [16.18251, 44.73894], [16.17157, 44.73079], [16.15917, 44.72754], [16.15383, 44.72754], [16.1483, 44.72876], [16.14245, 44.72792], [16.14699, 44.72299], [16.15724, 44.71649], [16.16078, 44.71319], [16.16298, 44.7092], [16.16396, 44.69315], [16.16774, 44.68682], [16.16794, 44.68133], [16.16604, 44.6797], [16.15479, 44.67766], [16.14983, 44.67441], [16.14888, 44.67034], [16.15002, 44.6641], [16.15021, 44.65339], [16.14888, 44.64755], [16.14468, 44.64389], [16.13991, 44.64321], [16.13286, 44.64376], [16.12123, 44.64674], [16.1157, 44.64973], [16.11245, 44.65379], [16.1094, 44.65949], [16.1054, 44.67251], [16.09853, 44.67414], [16.09243, 44.67265], [16.08862, 44.66966], [16.08633, 44.66451], [16.08538, 44.65963], [16.08728, 44.65379], [16.08843, 44.64674], [16.09281, 44.63399], [16.09892, 44.5991], [16.10139, 44.59177], [16.10616, 44.58729], [16.12332, 44.5824], [16.13248, 44.57588], [16.15021, 44.55917], [16.18206, 44.54164], [16.21959, 44.52288], [16.24819, 44.51183], [16.27143, 44.5044], [16.29162, 44.49028]]]}}]}