{"type":"FeatureCollection","features":[{"type":"Feature","properties":{"ime":"USK"},"geometry":{"type":"Polygon","coordinates":[[[15.760448,44.9694622],[15.7629616,44.9703887],[15.7639995,44.9704329],[15.7655068,44.970217],[15.7680356,44.9710228],[15.7687791,44.9708654],[15.7706783,44.9716827],[15.7719966,44.9714955],[15.7722622,44.9712131],[15.7726442,44.9714534],[15.7743399,44.9710544],[15.7751639,44.9705712],[15.7760129,44.9690795],[15.7785983,44.9688298],[15.7803427,44.9691306],[15.780973,44.9693848],[15.7804636,44.9700311],[15.7796909,44.9704206],[15.7798482,44.9707548],[15.7804019,44.9707915],[15.7806818,44.9706338],[15.7807058,44.970421],[15.7817344,44.9701973],[15.7820486,44.9703516],[15.7820035,44.9708103],[15.7822232,44.971009],[15.7826934,44.9709737],[15.7828034,44.9711924],[15.7826579,44.9720241],[15.7829929,44.9722433],[15.7833969,44.972236],[15.7835929,44.972958],[15.7835243,44.9731621],[15.7832311,44.9732783],[15.7826359,44.9729202],[15.7822542,44.9731658],[15.7825308,44.9737472],[15.7835795,44.9747119],[15.7832836,44.9756189],[15.782859,44.9758614],[15.7823478,44.9775939],[15.7826052,44.9783998],[15.782328,44.9786396],[15.7823176,44.9789772],[15.7828325,44.979319],[15.7830425,44.9796662],[15.7829563,44.9798558],[15.7815086,44.9797471],[15.7809221,44.980097],[15.7806898,44.9804946],[15.7807382,44.98096],[15.780885,44.9810399],[15.7808175,44.9817823],[15.7809415,44.9822212],[15.781228,44.9824196],[15.7810773,44.9826399],[15.7806333,44.9827515],[15.7805114,44.9829908],[15.7810527,44.9839866],[15.781854,44.9844001],[15.7818995,44.9846563],[15.7814631,44.9851998],[15.7820229,44.9862078],[15.7828059,44.9861445],[15.7826742,44.9865999],[15.7821923,44.9869469],[15.782251,44.9871781],[15.7836213,44.9879314],[15.7834601,44.9883195],[15.783076,44.9883958],[15.7830768,44.9886933],[15.7834068,44.9889442],[15.7831488,44.9894971],[15.7832422,44.9898379],[15.7830851,44.9901112],[15.7825331,44.9902033],[15.782625,44.9907162],[15.7832985,44.9904742],[15.7837399,44.9905792],[15.7838129,44.9909319],[15.7830683,44.9912593],[15.7829914,44.9916603],[15.782689,44.9919802],[15.7833367,44.9922817],[15.7824775,44.9927499],[15.7824253,44.993054],[15.7826926,44.993641],[15.7835919,44.9934999],[15.7839734,44.9931738],[15.7843018,44.993184],[15.7843678,44.9938404],[15.7853812,44.9936906],[15.7858083,44.9941449],[15.7856909,44.9947223],[15.7858528,44.9951908],[15.7853898,44.995595],[15.7850223,44.9956769],[15.7843915,44.9963342],[15.7830896,44.9967734],[15.7819794,44.9977282],[15.7817478,44.9982388],[15.7819888,44.9991775],[15.7818877,44.9993751],[15.7809693,45.0005788],[15.779384,45.001349],[15.7793784,45.0016415],[15.780042,45.0017562],[15.7803702,45.0019902],[15.7808096,45.0020642],[15.7815145,45.0017844],[15.7818452,45.0018429],[15.7819021,45.0020173],[15.7814413,45.0026431],[15.7815633,45.0039697],[15.7799937,45.0040361],[15.7798847,45.0043626],[15.7799827,45.0046211],[15.7797206,45.0048907],[15.7788414,45.0049417],[15.7786305,45.0051788],[15.7786039,45.00608],[15.7791243,45.0068003],[15.7790668,45.0070667],[15.7775191,45.0068843],[15.7773567,45.006602],[15.7768041,45.0062425],[15.7764314,45.0054165],[15.7761168,45.0052083],[15.7755686,45.0054094],[15.7759648,45.005923],[15.7759749,45.0062571],[15.7753907,45.0062678],[15.7750308,45.0061044],[15.7750165,45.0056837],[15.7747952,45.0056177],[15.7745553,45.0056469],[15.7742347,45.0060867],[15.7742077,45.0064941],[15.7738804,45.0066246],[15.7735231,45.0060583],[15.7732659,45.0062143],[15.7729427,45.0080978],[15.7729683,45.0089258],[15.7725169,45.0090813],[15.7720603,45.0085653],[15.7714442,45.0087753],[15.7710759,45.0090988],[15.7705508,45.0101298],[15.7700204,45.0106711],[15.7699509,45.0109764],[15.7702185,45.0113768],[15.7697383,45.0115707],[15.7696335,45.0123869],[15.7703394,45.0124007],[15.7704722,45.0125489],[15.7703017,45.0127265],[15.7705959,45.0130277],[15.7707086,45.0135034],[15.7703229,45.0137147],[15.7700079,45.0132241],[15.7692831,45.013576],[15.7691206,45.0138111],[15.7687321,45.0138211],[15.7689446,45.0141734],[15.7696067,45.0145244],[15.7696153,45.0146959],[15.7691692,45.0150718],[15.7680261,45.0150981],[15.7678094,45.0154341],[15.7680175,45.0157596],[15.7674573,45.0161402],[15.7672725,45.0165554],[15.7669743,45.0173313],[15.7670855,45.0179858],[15.7675944,45.0178519],[15.7675998,45.0176123],[15.7677592,45.0175437],[15.7682499,45.0179527],[15.7680712,45.0181598],[15.7670977,45.0184256],[15.7665652,45.0182137],[15.7661194,45.0182674],[15.7649957,45.0189824],[15.7646094,45.0196927],[15.7647666,45.0199413],[15.7646022,45.0205206],[15.7649071,45.0207823],[15.7661397,45.0204956],[15.7665571,45.0207617],[15.7665283,45.0209756],[15.7659291,45.0214116],[15.7659437,45.0220966],[15.7665598,45.0223899],[15.7666251,45.0227629],[15.7660379,45.0227388],[15.7654677,45.0229648],[15.7657659,45.0234426],[15.7663716,45.0234351],[15.7664933,45.0237476],[15.7661895,45.0242244],[15.765974,45.0242449],[15.7647348,45.0237436],[15.7644827,45.0238702],[15.7647868,45.0243636],[15.7659225,45.0248482],[15.7657522,45.0251575],[15.7649158,45.0254174],[15.7641628,45.0249775],[15.7634458,45.0248569],[15.7632959,45.0252707],[15.7638808,45.025894],[15.7644601,45.0259126],[15.7645172,45.0260387],[15.7643268,45.0262729],[15.7635313,45.0262045],[15.7627138,45.0264547],[15.7619379,45.0267411],[15.7618859,45.0269979],[15.7632275,45.0278089],[15.7631839,45.0284088],[15.7645738,45.0288038],[15.7649574,45.0292484],[15.7648719,45.0296192],[15.7635935,45.030459],[15.763247,45.0304124],[15.7628979,45.0296217],[15.7631512,45.0292347],[15.7628955,45.028971],[15.7623742,45.0291376],[15.7620415,45.0297079],[15.7611515,45.0302323],[15.760863,45.0306044],[15.7607122,45.0314929],[15.7614537,45.0321961],[15.7611471,45.0325356],[15.7593819,45.0331037],[15.7578983,45.0342828],[15.7567288,45.035708],[15.7566876,45.0360047],[15.7573929,45.0360123],[15.7577837,45.036179],[15.7577056,45.0365699],[15.7571354,45.0369382],[15.7574894,45.0373149],[15.7585139,45.0376416],[15.7585307,45.0378316],[15.7582496,45.0383577],[15.7582242,45.0393696],[15.7577901,45.0396583],[15.7569007,45.0394702],[15.7567542,45.0399683],[15.7555951,45.0405678],[15.7558543,45.0409778],[15.7562227,45.0411665],[15.7564382,45.0417551],[15.7562725,45.0419417],[15.7554177,45.0421527],[15.7554037,45.0422911],[15.7562889,45.0427572],[15.7565852,45.0432744],[15.7565457,45.0435181],[15.7561865,45.0438406],[15.754822,45.0445673],[15.7552144,45.0455046],[15.7552083,45.0458871],[15.7547217,45.0465843],[15.7554211,45.0469768],[15.7553483,45.0473642],[15.7547814,45.0475097],[15.7534607,45.0464431],[15.7530661,45.0464907],[15.7528961,45.0467122],[15.7534335,45.0481767],[15.7533621,45.0490202],[15.7526904,45.0497733],[15.7532081,45.0504027],[15.7528547,45.0509832],[15.7528994,45.0513063],[15.7533052,45.0517563],[15.7529062,45.052236],[15.7517899,45.0529734],[15.7520507,45.0538013],[15.7522967,45.0538031],[15.7529297,45.0531947],[15.7532477,45.0532309],[15.7535764,45.0535584],[15.7537089,45.0539129],[15.7532346,45.0543548],[15.7531685,45.0547522],[15.7529395,45.054958],[15.7520576,45.0546973],[15.7512188,45.0552972],[15.7508242,45.0553404],[15.7498191,45.055122],[15.7482865,45.0552748],[15.7479124,45.0553769],[15.747675,45.0558363],[15.74712,45.0558107],[15.7469574,45.0559502],[15.7470399,45.0561926],[15.74762,45.0565594],[15.7475386,45.0569998],[15.74651,45.057182],[15.7461319,45.0569105],[15.7455788,45.0568411],[15.7453189,45.0571166],[15.7456655,45.0576447],[15.7464829,45.0583791],[15.7462607,45.0591122],[15.7458599,45.0592848],[15.7450846,45.0591683],[15.7449909,45.0594772],[15.7452946,45.0598767],[15.7450994,45.0600102],[15.7446224,45.0600572],[15.7435689,45.0597794],[15.7432526,45.0599255],[15.7432271,45.0601107],[15.7437607,45.0605561],[15.7433599,45.0607994],[15.7424478,45.059793],[15.7417892,45.0599243],[15.7415215,45.060281],[15.7411928,45.0616651],[15.7415804,45.061946],[15.7422884,45.0619476],[15.7429705,45.0622874],[15.7436334,45.0621166],[15.7437945,45.0619377],[15.743777,45.0621173],[15.7440573,45.0621903],[15.7440568,45.0624523],[15.7445505,45.0625785],[15.7448339,45.0624063],[15.7449669,45.0626219],[15.7452522,45.0625374],[15.7451215,45.0626805],[15.7452428,45.0627895],[15.7462994,45.0631193],[15.7465349,45.063335],[15.7462895,45.0633973],[15.7464627,45.0635884],[15.7466841,45.063528],[15.7469638,45.0637348],[15.7470682,45.0635784],[15.7471232,45.0637866],[15.7474428,45.063888],[15.7474824,45.063767],[15.7477806,45.0639218],[15.7476768,45.0639389],[15.7478444,45.0641313],[15.7480345,45.0640462],[15.7479201,45.0642815],[15.7481839,45.0642421],[15.7480195,45.0644141],[15.7482145,45.0644027],[15.7482269,45.0645483],[15.7480473,45.064604],[15.7483894,45.0647812],[15.7482906,45.0650017],[15.7484881,45.0649842],[15.7488299,45.0652677],[15.7492228,45.0653348],[15.7495261,45.0651017],[15.7500155,45.0651434],[15.7501769,45.0649804],[15.7502303,45.0651268],[15.7510753,45.0651663],[15.7513383,45.0650042],[15.7519901,45.0650202],[15.7542546,45.0660074],[15.7560445,45.068184],[15.7565869,45.0696434],[15.7576049,45.0702165],[15.7591936,45.0706739],[15.760366,45.0714502],[15.7623645,45.0718626],[15.7635807,45.0729438],[15.7646306,45.0734633],[15.7690922,45.0750005],[15.7693259,45.0754407],[15.7708662,45.0763271],[15.7712085,45.0767424],[15.7713832,45.077284],[15.771103,45.0782994],[15.7709897,45.0785443],[15.7701877,45.0788252],[15.7695191,45.0795194],[15.7695178,45.0800638],[15.7690946,45.0811916],[15.7691326,45.0814786],[15.7715484,45.0828848],[15.7731751,45.0834733],[15.7740465,45.0836226],[15.7744101,45.083984],[15.7738573,45.0842038],[15.7740586,45.0844094],[15.7737412,45.0848953],[15.773753,45.0852399],[15.7733943,45.0853014],[15.773509,45.0856263],[15.7732748,45.0857364],[15.773561,45.085838],[15.7731941,45.0861864],[15.7732598,45.0863462],[15.7724558,45.0864709],[15.7724101,45.0866804],[15.7719143,45.0869387],[15.7719341,45.0870633],[15.7717448,45.0870371],[15.7717306,45.0875592],[15.7711873,45.0875459],[15.7701778,45.0886416],[15.7696102,45.0886561],[15.7687722,45.0893924],[15.7693169,45.0911756],[15.7698593,45.0917529],[15.7705493,45.0934086],[15.7716629,45.0942689],[15.7732725,45.0951456],[15.7746893,45.0953378],[15.7755564,45.0952116],[15.7761572,45.0953205],[15.7773716,45.0950963],[15.7789834,45.0952012],[15.7793179,45.0959711],[15.7791208,45.0961912],[15.7792031,45.096406],[15.7790919,45.0964018],[15.7792823,45.0967998],[15.7792053,45.0971007],[15.7798281,45.0972843],[15.7794363,45.0973746],[15.7795202,45.0975957],[15.7792642,45.0976981],[15.779575,45.0979446],[15.7797864,45.0979004],[15.7800306,45.0985624],[15.780246,45.0986408],[15.7797965,45.0990483],[15.7798953,45.0994155],[15.7800652,45.0994756],[15.7798312,45.0995492],[15.7799017,45.0996562],[15.7796159,45.0996609],[15.779689,45.0998364],[15.7794328,45.1005014],[15.7794612,45.1007261],[15.7797591,45.1007893],[15.7799739,45.1011692],[15.7794952,45.1014665],[15.7796478,45.1016444],[15.7794425,45.1017391],[15.7795788,45.1020076],[15.7798639,45.1020693],[15.7796441,45.1021383],[15.7796451,45.1023879],[15.7799799,45.1024206],[15.7799507,45.1027818],[15.7797411,45.1027821],[15.7794565,45.1032251],[15.7796008,45.1033889],[15.7799392,45.1033977],[15.7796952,45.1037914],[15.7800417,45.1037458],[15.7799775,45.1039887],[15.7803552,45.1041981],[15.7803575,45.1045423],[15.7807348,45.1046629],[15.7805682,45.1050245],[15.7808299,45.105115],[15.7811249,45.1059532],[15.7814959,45.1061943],[15.7810913,45.1063444],[15.7811372,45.1067878],[15.7815268,45.106761],[15.7815641,45.10711],[15.7818014,45.1071657],[15.7819702,45.1075297],[15.7822858,45.1075567],[15.7822868,45.1076804],[15.7839795,45.1081053],[15.784168,45.1084144],[15.7844493,45.108359],[15.7842875,45.1087353],[15.7847329,45.1088313],[15.7847266,45.1090709],[15.7849776,45.1092969],[15.7854943,45.1093429],[15.7857027,45.109531],[15.7855581,45.1095882],[15.7856223,45.1097424],[15.7859212,45.1098219],[15.7857207,45.1100871],[15.785479,45.1101276],[15.7858062,45.1105865],[15.786302,45.1107118],[15.7865143,45.111248],[15.7864015,45.1114176],[15.7869547,45.1115712],[15.7868728,45.1118469],[15.7870957,45.11223],[15.7875756,45.1124668],[15.7871326,45.1126044],[15.787507,45.1126872],[15.7876504,45.1134028],[15.7881369,45.1135418],[15.7881483,45.1137307],[15.788573,45.1138346],[15.788646,45.1140591],[15.7892765,45.1141549],[15.7901761,45.1148213],[15.7907756,45.1148014],[15.7911689,45.115104],[15.7910493,45.1155807],[15.790818,45.1156897],[15.7908689,45.1158531],[15.7904102,45.116075],[15.7904552,45.1166196],[15.790242,45.1168878],[15.7903364,45.1171633],[15.790117,45.1172649],[15.7901023,45.1174686],[15.7899374,45.1172644],[15.7898012,45.1173549],[15.7899041,45.1174936],[15.789605,45.1177555],[15.7898949,45.1188407],[15.7902053,45.1189477],[15.7902877,45.1192711],[15.7901505,45.1195122],[15.7903781,45.1200673],[15.7898543,45.1200947],[15.7898285,45.1198946],[15.7897009,45.1197532],[15.789555,45.1198819],[15.7895577,45.1197305],[15.7888445,45.1199752],[15.7883224,45.119738],[15.7880312,45.1199863],[15.7878979,45.1197725],[15.7875784,45.1202268],[15.7875634,45.1206887],[15.7869879,45.1209531],[15.7870911,45.1210132],[15.7869779,45.1212557],[15.7861908,45.1217376],[15.785949,45.1216127],[15.7858804,45.1218735],[15.7855547,45.121873],[15.7855324,45.1220418],[15.7853342,45.1220117],[15.785137,45.1222887],[15.7847891,45.1223001],[15.7847642,45.1226777],[15.7845826,45.1228825],[15.7846017,45.1235156],[15.784342,45.124103],[15.7826737,45.1250909],[15.7816692,45.1252508],[15.7814198,45.1256574],[15.7808279,45.1260709],[15.7803462,45.1269246],[15.7792226,45.1278997],[15.7781432,45.1295628],[15.7776781,45.1308259],[15.7782215,45.1310562],[15.7785151,45.1315491],[15.7787896,45.1314572],[15.7789174,45.1319153],[15.7786658,45.1321105],[15.7790942,45.132229],[15.7789568,45.1324054],[15.7792774,45.1324978],[15.7792464,45.132669],[15.7796855,45.1330619],[15.7799371,45.1331007],[15.7798541,45.1333532],[15.7800352,45.133478],[15.7800012,45.1337122],[15.7804843,45.1339428],[15.7804227,45.1341547],[15.7807064,45.1342653],[15.7809592,45.134736],[15.7814425,45.1351511],[15.7814082,45.1353269],[15.7818821,45.1356971],[15.7818306,45.1359404],[15.7815767,45.1361941],[15.7791424,45.1366382],[15.7783122,45.1370623],[15.7779152,45.1370335],[15.7770409,45.1373635],[15.776065,45.1381216],[15.7752665,45.1392473],[15.7754398,45.1396647],[15.7751892,45.1408632],[15.7748707,45.1411173],[15.7755271,45.1422827],[15.7759175,45.1438144],[15.7760698,45.1439124],[15.7761528,45.1445777],[15.7759887,45.1447813],[15.7759366,45.1460415],[15.774664,45.1467296],[15.7727917,45.1474532],[15.7720955,45.1489878],[15.7699851,45.1505003],[15.7694199,45.1512556],[15.7686847,45.1539782],[15.7687824,45.15445],[15.7684065,45.1553345],[15.7684465,45.1557662],[15.7678474,45.1559591],[15.7680223,45.156093],[15.767479,45.1564116],[15.7676674,45.1568827],[15.7674487,45.1572936],[15.7671835,45.1574259],[15.7672044,45.1582762],[15.7668625,45.1588094],[15.7671053,45.1590687],[15.7669875,45.1594701],[15.7667695,45.159575],[15.766934,45.1596278],[15.7669077,45.1597945],[15.7666753,45.1598411],[15.76677,45.1600159],[15.7662677,45.1606222],[15.7664199,45.1610037],[15.7662288,45.1613334],[15.7663155,45.1616388],[15.7658537,45.1623528],[15.7655674,45.1625257],[15.7650467,45.1625247],[15.7646135,45.1628245],[15.7650362,45.1631187],[15.7652101,45.1637519],[15.7650296,45.1639736],[15.7646413,45.1640167],[15.7646724,45.1641336],[15.7650247,45.1643201],[15.7650446,45.1645629],[15.7657081,45.1649499],[15.7653264,45.1651325],[15.7652918,45.1655782],[15.7648941,45.1656663],[15.7650664,45.1658452],[15.7646908,45.1661672],[15.7652016,45.1662537],[15.764986,45.1664802],[15.7655636,45.1668677],[15.7654915,45.1671157],[15.7659803,45.1670494],[15.7662998,45.1673352],[15.7665597,45.1670365],[15.7669228,45.1671961],[15.7666096,45.1679585],[15.7669239,45.1683299],[15.7674336,45.1678675],[15.7678689,45.168022],[15.7680427,45.1689433],[15.7675097,45.1690414],[15.7671544,45.1695117],[15.7673068,45.1697896],[15.7677898,45.1698764],[15.7676361,45.1701563],[15.7676778,45.170714],[15.7680126,45.1708287],[15.7683258,45.1707097],[15.7689941,45.1714386],[15.7695978,45.171466],[15.7695245,45.1718624],[15.7698914,45.1717745],[15.7702842,45.1720058],[15.7704448,45.1718922],[15.7705679,45.1721749],[15.7703491,45.1724013],[15.7707935,45.1722723],[15.7707755,45.1731229],[15.7711252,45.1733319],[15.7713784,45.1733077],[15.7717262,45.1735664],[15.772433,45.173503],[15.7726507,45.1730832],[15.7737623,45.1743714],[15.7737907,45.1746997],[15.7743335,45.1747456],[15.7746346,45.1745995],[15.7751733,45.1748613],[15.7756539,45.1748266],[15.7775784,45.1763567],[15.7777275,45.1766212],[15.7776117,45.1771619],[15.7768935,45.1784356],[15.7765469,45.1794459],[15.777302,45.1805791],[15.7774188,45.1814422],[15.7765434,45.1833919],[15.7765835,45.1836346],[15.7767259,45.1836562],[15.7766801,45.1839624],[15.7768954,45.184114],[15.7769887,45.1839603],[15.7773366,45.1843449],[15.7776518,45.1842437],[15.7781633,45.1843708],[15.778624,45.1850245],[15.7791398,45.185165],[15.7793449,45.1857485],[15.779061,45.1859889],[15.7795046,45.1861434],[15.7795071,45.1862693],[15.7816119,45.1870469],[15.7823334,45.1871184],[15.7822752,45.1872763],[15.7824352,45.1874056],[15.7826187,45.187157],[15.7828075,45.1872276],[15.7826273,45.1876113],[15.7831537,45.1877246],[15.7830029,45.1880271],[15.7831205,45.1882513],[15.7836589,45.1883736],[15.7838594,45.1886062],[15.7838867,45.188795],[15.7837101,45.1889042],[15.783948,45.189141],[15.7836384,45.1893546],[15.7841591,45.1898055],[15.7840915,45.1899229],[15.7844169,45.1903302],[15.7842621,45.1904662],[15.7848377,45.1907322],[15.784745,45.1913403],[15.7848655,45.1917759],[15.7853538,45.1918265],[15.7852679,45.1919396],[15.7858715,45.1923359],[15.7862537,45.1922028],[15.7863489,45.19258],[15.786637,45.1925331],[15.7872245,45.1932624],[15.7877897,45.193407],[15.7880239,45.1937158],[15.7883881,45.1937088],[15.7901913,45.1943353],[15.7907778,45.1949836],[15.7915643,45.1954281],[15.7926785,45.1954743],[15.7936427,45.1950762],[15.7941888,45.1951669],[15.7943177,45.195058],[15.7944975,45.1952818],[15.795021,45.1948956],[15.7958654,45.1948582],[15.7962351,45.1954226],[15.7970678,45.1960422],[15.7974151,45.1966291],[15.7980834,45.1969215],[15.7984615,45.1967748],[15.7986976,45.1969937],[15.7986555,45.1973944],[15.7993975,45.1969213],[15.8001495,45.197285],[15.8003682,45.1976119],[15.8008458,45.197298],[15.8015491,45.1981615],[15.8016293,45.1985433],[15.8013442,45.1990313],[15.801378,45.2001829],[15.801167,45.2007424],[15.8011659,45.2012868],[15.8014952,45.2020179],[15.802472,45.2029154],[15.8030427,45.2029294],[15.8030215,45.2031815],[15.8026633,45.2035575],[15.8034084,45.2038132],[15.8035991,45.2037398],[15.8038128,45.2031489],[15.8043077,45.2034424],[15.8044043,45.2038692],[15.804149,45.2042579],[15.8049431,45.2043873],[15.8051371,45.203972],[15.8052693,45.2039845],[15.8055674,45.2041984],[15.8068724,45.2044366],[15.8075307,45.2050169],[15.8086974,45.2051077],[15.8092032,45.2053155],[15.8095129,45.2056642],[15.808643,45.2062013],[15.808071,45.2063719],[15.8076918,45.2061766],[15.806237,45.2069248],[15.8059921,45.2073855],[15.8051632,45.2080753],[15.8049345,45.2086123],[15.8051499,45.2087683],[15.8074584,45.208068],[15.8081291,45.2082837],[15.8087893,45.2088865],[15.8099415,45.2094588],[15.8102171,45.2101452],[15.8106339,45.2102502],[15.8116016,45.2098744],[15.8120302,45.2100198],[15.8125522,45.210574],[15.8134806,45.2104009],[15.8135589,45.2099729],[15.8139128,45.2098579],[15.8146262,45.2100508],[15.8144552,45.2107854],[15.8149932,45.2109615],[15.8157727,45.2104386],[15.815404,45.2099102],[15.815642,45.2097556],[15.8164005,45.2097771],[15.816497,45.2101319],[15.8167931,45.2101342],[15.8170499,45.20984],[15.8169245,45.2089139],[15.8174143,45.2082896],[15.8180968,45.2083836],[15.8181929,45.2086034],[15.818507,45.2087496],[15.8188433,45.2086797],[15.8187772,45.2082348],[15.8182464,45.2079416],[15.8181317,45.2078344],[15.8182218,45.2077258],[15.8188529,45.2076313],[15.8192294,45.2073677],[15.8201215,45.2078246],[15.820271,45.2077606],[15.8202214,45.2073515],[15.8206379,45.2072765],[15.8213427,45.2076494],[15.8212653,45.2078524],[15.8207332,45.2080317],[15.8208113,45.2083237],[15.8211765,45.2084335],[15.8215702,45.2083137],[15.821857,45.2078347],[15.8227166,45.207257],[15.8217518,45.2068365],[15.821693,45.2063375],[15.8230451,45.2064267],[15.8240341,45.2059337],[15.8244697,45.2066729],[15.8259073,45.2069955],[15.8266739,45.2073383],[15.8280157,45.2090786],[15.8282076,45.2096725],[15.8286403,45.2102398],[15.829133,45.2106388],[15.8310063,45.2110816],[15.8313527,45.2118927],[15.8319607,45.2127338],[15.8306874,45.2141804],[15.8301237,45.2146432],[15.8285514,45.2154713],[15.8270727,45.2168799],[15.8268392,45.2173184],[15.8270456,45.2184156],[15.8272786,45.2188074],[15.8284851,45.219007],[15.830395,45.2185609],[15.8325334,45.2189704],[15.8326793,45.2192855],[15.8324569,45.2195519],[15.8324723,45.2202727],[15.8328933,45.2206859],[15.8337292,45.2212261],[15.835611,45.2219836],[15.8382447,45.2240744],[15.8388791,45.2243133],[15.8407039,45.2244359],[15.8421371,45.2249437],[15.8455599,45.2249178],[15.8474607,45.224407],[15.8490691,45.2233647],[15.8498849,45.2226206],[15.850272,45.221934],[15.8509664,45.2211899],[15.8523569,45.2205309],[15.8521782,45.2201822],[15.8517974,45.2199654],[15.8518538,45.2197995],[15.8533988,45.219552],[15.85485,45.218672],[15.8558699,45.2182793],[15.8563019,45.2171143],[15.8566744,45.216932],[15.8583876,45.2171231],[15.862514,45.2187863],[15.8665447,45.2201006],[15.8678872,45.2199197],[15.870651,45.2203749],[15.8718142,45.220765],[15.8724453,45.2205888],[15.8726077,45.2203263],[15.8720185,45.2199712],[15.8720594,45.2198226],[15.8726905,45.2196063],[15.8737089,45.2197392],[15.8744354,45.2201402],[15.8750011,45.2202209],[15.8752036,45.2201125],[15.8749485,45.2187752],[15.8756048,45.2182275],[15.8760496,45.2181539],[15.8765181,45.2183144],[15.8767182,45.2190518],[15.8772264,45.2195154],[15.8778488,45.2195961],[15.878504,45.2194198],[15.8792332,45.2188152],[15.8797182,45.2188444],[15.8798633,45.2190446],[15.8796109,45.2197241],[15.8788819,45.2202146],[15.8789786,45.2203576],[15.8807726,45.2206743],[15.8810638,45.2206174],[15.8814206,45.2202693],[15.8808087,45.2192629],[15.8808015,45.2189087],[15.8812716,45.2184749],[15.8819188,45.2183101],[15.8835908,45.2181543],[15.8837573,45.2183064],[15.8837105,45.2191828],[15.8840426,45.2194583],[15.884888,45.2198349],[15.8857057,45.2195594],[15.8860993,45.2199885],[15.8867761,45.2198754],[15.8882772,45.2191604],[15.8889573,45.218618],[15.8899146,45.2186724],[15.8899316,45.2184261],[15.8890333,45.2173635],[15.889055,45.2164645],[15.8892533,45.2160553],[15.8895443,45.2160394],[15.8902435,45.216401],[15.8909465,45.2174321],[15.891226,45.2175711],[15.8914446,45.2175735],[15.8923485,45.2169304],[15.8937722,45.2166115],[15.8939621,45.2167289],[15.8938933,45.2171363],[15.8941548,45.2180252],[15.8940545,45.2181926],[15.8933567,45.2184149],[15.8932897,45.2186105],[15.8934971,45.2187791],[15.894922,45.2190325],[15.8946472,45.2198608],[15.8943848,45.2200249],[15.8941936,45.2214815],[15.8936057,45.2218567],[15.889039,45.2237851],[15.8884752,45.2241597],[15.8873851,45.225624],[15.8873264,45.2261],[15.8874905,45.226172],[15.8890874,45.2265637],[15.8907192,45.226622],[15.8911079,45.2268791],[15.8910681,45.22741],[15.8915908,45.2288865],[15.8918174,45.2291584],[15.8930024,45.2292901],[15.8949379,45.2291984],[15.8954114,45.2287767],[15.8961964,45.2268281],[15.8966189,45.2267542],[15.8990603,45.2273386],[15.9006047,45.2279041],[15.9027994,45.2275246],[15.9045142,45.2275154],[15.9049197,45.2271956],[15.9050838,45.2268379],[15.9050285,45.2259627],[15.9053907,45.2257451],[15.9064892,45.2257897],[15.9065939,45.2252483],[15.9069261,45.2249503],[15.907476,45.2249468],[15.9081201,45.225602],[15.9087444,45.2255482],[15.9088518,45.2246353],[15.9102432,45.2243412],[15.911552,45.2246631],[15.9117639,45.2248834],[15.9116536,45.225339],[15.9109975,45.2256552],[15.910997,45.2259524],[15.9114125,45.2261241],[15.9118707,45.2259422],[15.9122681,45.2250768],[15.9134329,45.2247194],[15.9148214,45.2252086],[15.9151277,45.2253618],[15.9154798,45.2260056],[15.9157896,45.2262445],[15.916685,45.2265503],[15.9175721,45.227222],[15.9179109,45.2277461],[15.9190943,45.2283484],[15.9193008,45.2286238],[15.9192628,45.228859],[15.9184974,45.2291047],[15.9167356,45.2284124],[15.9162773,45.2286569],[15.91593,45.2290304],[15.9158716,45.2293517],[15.9159196,45.2302479],[15.9160924,45.2304956],[15.9166385,45.230592],[15.9195609,45.230464],[15.9196665,45.2306561],[15.9191448,45.2311078],[15.9204975,45.2307465],[15.9213078,45.2307801],[15.9214371,45.2306303],[15.9209397,45.229733],[15.9214211,45.228681],[15.9232619,45.2275541],[15.92402,45.2273179],[15.9246747,45.2269029],[15.9257423,45.2254175],[15.9263487,45.2242929],[15.9264286,45.2238221],[15.9262672,45.2196588],[15.926023,45.2191515],[15.9254708,45.2186478],[15.9248265,45.2183735],[15.9239279,45.2173747],[15.9235354,45.2162355],[15.9218804,45.2141508],[15.9211267,45.2124883],[15.9213597,45.2120145],[15.9227079,45.2116115],[15.9239141,45.2126687],[15.9245874,45.2140125],[15.925485,45.2145559],[15.9268735,45.2147535],[15.9273364,45.2142891],[15.9273083,45.2125897],[15.9267894,45.2115522],[15.9269717,45.2111372],[15.9277852,45.2108605],[15.9289329,45.2110286],[15.929903,45.2123526],[15.9308287,45.212728],[15.9341828,45.2136008],[15.935094,45.2134878],[15.9363828,45.213973],[15.9403799,45.2147214],[15.9445878,45.2132912],[15.9463931,45.2144097],[15.9476816,45.2157022],[15.9536628,45.2172673],[15.9572092,45.2207767],[15.9626256,45.221106],[15.9659971,45.2218243],[15.966813,45.2235767],[15.9695399,45.2256243],[15.9693369,45.225744],[15.9712884,45.2277599],[15.9719983,45.2279932],[15.9728265,45.2288432],[15.9742615,45.2289877],[15.9753584,45.2294098],[15.9760472,45.2293338],[15.9771795,45.2301771],[15.9799056,45.2297651],[15.9807677,45.2289119],[15.982285,45.2285328],[15.9848691,45.226631],[15.9862008,45.2250621],[15.9885493,45.2238579],[15.9909402,45.223127],[16.0002706,45.2218765],[16.0007404,45.2204521],[16.0042998,45.2173357],[16.0063984,45.2169023],[16.0102747,45.2187992],[16.0106814,45.2188608],[16.012921,45.2176346],[16.0141548,45.2176883],[16.0146821,45.2179885],[16.0155941,45.21621],[16.0172318,45.2118222],[16.0170366,45.211154],[16.0174845,45.2107296],[16.0171002,45.2103285],[16.017601,45.2100736],[16.019404,45.209681],[16.0195998,45.2089531],[16.020545,45.20874],[16.0208755,45.206978],[16.0200043,45.2055947],[16.0207698,45.204302],[16.0207773,45.2035695],[16.0217472,45.2020338],[16.022761,45.2011001],[16.0236269,45.2012741],[16.0304493,45.2011153],[16.0296189,45.1989812],[16.027648,45.1980044],[16.026323,45.1944442],[16.0253875,45.1930878],[16.0251117,45.1921087],[16.0238039,45.1913344],[16.0221812,45.1892498],[16.0200124,45.1884932],[16.0181828,45.1859164],[16.0174118,45.1854316],[16.0165019,45.1843776],[16.0152443,45.1837834],[16.0146719,45.1832773],[16.0146936,45.1827959],[16.0155348,45.1812188],[16.0156618,45.1798926],[16.0168145,45.1795229],[16.0177526,45.1794969],[16.0200123,45.1804946],[16.0224091,45.1809158],[16.0275601,45.1806746],[16.0300642,45.1810542],[16.032888,45.1804833],[16.0365176,45.1802692],[16.0376076,45.179907],[16.0391215,45.1797414],[16.0431219,45.1802916],[16.0438861,45.1794942],[16.0462031,45.179604],[16.0465114,45.1791593],[16.0474636,45.1791342],[16.0483208,45.1785602],[16.0487029,45.1787101],[16.0478879,45.1764097],[16.0462121,45.1753195],[16.046462,45.1738878],[16.0464079,45.1726939],[16.0471519,45.1718849],[16.0516097,45.1715831],[16.0510327,45.1680113],[16.0531764,45.1628726],[16.0566529,45.1579612],[16.0598104,45.1572924],[16.0605099,45.1560455],[16.0613414,45.1558314],[16.0617985,45.1555167],[16.0628635,45.1541831],[16.063026,45.154226],[16.0637875,45.1533661],[16.0641112,45.1534991],[16.0644229,45.152747],[16.0647295,45.1527994],[16.0653555,45.1514309],[16.0671768,45.1508318],[16.0694612,45.1486443],[16.0702752,45.1474586],[16.0706532,45.1472412],[16.0708154,45.14605],[16.0724202,45.1457129],[16.074942,45.143568],[16.0767013,45.1425651],[16.0771871,45.1425629],[16.0780869,45.1422387],[16.0794737,45.1398393],[16.0804876,45.1390292],[16.0819955,45.1372787],[16.0818807,45.1360988],[16.0826382,45.1347977],[16.0836392,45.1346131],[16.0858132,45.1318335],[16.0856801,45.1314045],[16.0846899,45.1307046],[16.0849674,45.1287688],[16.0845837,45.1281814],[16.0850583,45.1274738],[16.0848184,45.1268208],[16.0854525,45.1262405],[16.0857851,45.1256091],[16.085884,45.1242923],[16.0852256,45.1220651],[16.0862866,45.1209503],[16.0848683,45.1196717],[16.0851592,45.1188423],[16.0847835,45.1184575],[16.0854985,45.1173886],[16.0856724,45.1150577],[16.0853989,45.1139091],[16.0844271,45.1120648],[16.0848384,45.1115689],[16.0844049,45.1106074],[16.0877673,45.1079248],[16.0893184,45.1049742],[16.0899516,45.1043494],[16.0921903,45.1038708],[16.0956681,45.1039906],[16.0961098,45.1030819],[16.0970654,45.102262],[16.0977285,45.1014424],[16.0995322,45.1009525],[16.1013974,45.0999078],[16.1028,45.0996169],[16.1032835,45.0982722],[16.1040289,45.0977822],[16.1040461,45.0972318],[16.1044488,45.0970382],[16.1051591,45.0958272],[16.1078378,45.0932686],[16.1089163,45.092704],[16.1116428,45.0924987],[16.1142385,45.0932464],[16.116481,45.0926795],[16.1174141,45.092611],[16.1192802,45.0934152],[16.1201221,45.0934041],[16.121747,45.09305],[16.1222741,45.0927634],[16.123986,45.0923826],[16.1256461,45.091279],[16.1261672,45.0905005],[16.1280212,45.0886098],[16.1296814,45.0874634],[16.1317028,45.0866069],[16.1368724,45.0901343],[16.1386232,45.0908198],[16.1388409,45.0903047],[16.1393983,45.0899283],[16.1400874,45.088966],[16.14174,45.0877409],[16.1424056,45.0866422],[16.1429014,45.0861463],[16.1440766,45.0853684],[16.1455134,45.084785],[16.1467529,45.0840233],[16.1486854,45.0834074],[16.1507269,45.0833361],[16.1523229,45.0830773],[16.1543322,45.0831231],[16.1555265,45.0828055],[16.1583497,45.0806908],[16.1602642,45.078927],[16.1629751,45.0776002],[16.1640732,45.0756025],[16.1661861,45.0742732],[16.168335,45.0734434],[16.1722251,45.0725172],[16.1739287,45.0703677],[16.1720552,45.0694795],[16.1704577,45.0674369],[16.1701364,45.0667107],[16.171183,45.06555],[16.1728264,45.0645319],[16.1738272,45.06341],[16.1754798,45.0623594],[16.1746994,45.0610819],[16.1747545,45.0603556],[16.1758378,45.0583516],[16.1767927,45.0573658],[16.1772861,45.0562369],[16.1763955,45.0554262],[16.1760467,45.0548814],[16.1757804,45.0537788],[16.1759457,45.0526308],[16.1763313,45.052047],[16.1768362,45.0516773],[16.1770474,45.0510806],[16.1851034,45.047136],[16.1861307,45.046259],[16.1861046,45.0456596],[16.1865803,45.044573],[16.1880232,45.0430717],[16.1882675,45.0425606],[16.1879043,45.0408254],[16.1878726,45.0402596],[16.188047,45.0396602],[16.1895667,45.0376402],[16.1906712,45.0367806],[16.1915318,45.0357465],[16.1917263,45.0346117],[16.1915059,45.0335109],[16.1916486,45.0329619],[16.1920133,45.0323568],[16.1936847,45.0310391],[16.1942294,45.0308057],[16.1950517,45.0309866],[16.1957413,45.0309391],[16.1970699,45.0318979],[16.1990936,45.0325515],[16.2009534,45.0319447],[16.2039795,45.0330117],[16.2055628,45.0329923],[16.2066953,45.0327207],[16.2090759,45.0325735],[16.2104119,45.0318506],[16.2105655,45.0315747],[16.210431,45.0307269],[16.2105119,45.0301936],[16.2108132,45.0296165],[16.2114176,45.0292848],[16.2121464,45.0290312],[16.2137203,45.0294228],[16.2143766,45.0291426],[16.2155763,45.0282631],[16.2189628,45.0266858],[16.2202404,45.0258779],[16.2235815,45.0247572],[16.2239207,45.0248454],[16.2246691,45.0254388],[16.2255044,45.0247335],[16.2259136,45.0246417],[16.2272815,45.0247447],[16.2292226,45.0245512],[16.2299379,45.0236675],[16.2296047,45.0231657],[16.2295038,45.0225951],[16.2306026,45.0217075],[16.2297168,45.0194805],[16.2298177,45.017198],[16.2321401,45.0165613],[16.2342398,45.0151265],[16.236352,45.0146601],[16.2427126,45.0142347],[16.2445465,45.014881],[16.2472043,45.0148435],[16.2500349,45.014261],[16.2510526,45.0136927],[16.2527458,45.0143362],[16.2531844,45.0142986],[16.2555764,45.0125606],[16.2566129,45.0114896],[16.2571711,45.0111044],[16.2575697,45.0110856],[16.2581279,45.0112265],[16.2588455,45.0117996],[16.2594036,45.0131243],[16.259284,45.0140731],[16.2595365,45.0145428],[16.2620456,45.0168864],[16.2625394,45.0168618],[16.2644136,45.0173517],[16.2668466,45.0171785],[16.2691179,45.0168538],[16.2726604,45.0148184],[16.2729939,45.0140902],[16.2727059,45.0116869],[16.2733478,45.0099287],[16.2727325,45.0086335],[16.2737425,45.0062282],[16.2742741,45.0059839],[16.2749119,45.0059839],[16.2759485,45.0063316],[16.2767059,45.0064067],[16.2775432,45.0072805],[16.2803796,45.0087464],[16.2843139,45.0083037],[16.2841402,45.0075369],[16.2850092,45.0073169],[16.2853256,45.0069168],[16.2850951,45.0058226],[16.2856705,45.0048439],[16.2854143,45.0031892],[16.2854607,45.0024355],[16.2869995,45.0002053],[16.2871657,44.9992796],[16.28778,44.9981397],[16.2887518,44.9956636],[16.2832057,44.9954335],[16.2821269,44.9958298],[16.280944,44.9957965],[16.2791014,44.9954177],[16.27772,44.9946969],[16.2743974,44.9940393],[16.272998,44.9933585],[16.2723264,44.992607],[16.2723405,44.9922746],[16.2734103,44.9910821],[16.2735374,44.9905397],[16.2732646,44.9898719],[16.2726669,44.9893457],[16.2712347,44.9890414],[16.2701044,44.9890683],[16.2692731,44.9888389],[16.266883,44.9877512],[16.2653791,44.987819],[16.264631,44.9883214],[16.2635787,44.9887089],[16.2619669,44.9885263],[16.2613945,44.9881476],[16.2602213,44.9862464],[16.259911,44.9859281],[16.2593876,44.9857974],[16.2583099,44.9857572],[16.2569267,44.9860035],[16.2560764,44.9863335],[16.2549442,44.9873571],[16.2543467,44.9874808],[16.2532142,44.9874153],[16.2525686,44.9871041],[16.2518316,44.9858516],[16.2516128,44.9851152],[16.2506614,44.984464],[16.2498304,44.9836233],[16.2466511,44.9827646],[16.2442103,44.9828307],[16.2419565,44.9831853],[16.2386004,44.9830127],[16.2365135,44.9832813],[16.2358402,44.9837208],[16.2351083,44.9849042],[16.2344217,44.9853875],[16.233256,44.9857393],[16.229131,44.9846175],[16.2258785,44.9845062],[16.225155,44.9846294],[16.2247949,44.9848367],[16.2244064,44.9855012],[16.2241853,44.9863541],[16.2235321,44.986745],[16.2227457,44.9869203],[16.2215308,44.9867527],[16.2179683,44.9855452],[16.2128832,44.9847094],[16.2091749,44.9834046],[16.2092972,44.9821639],[16.2082052,44.9763687],[16.2083345,44.9750409],[16.2078187,44.9728182],[16.204248,44.9659221],[16.2044758,44.9653581],[16.2053467,44.9646518],[16.2066262,44.9630592],[16.2094734,44.9585227],[16.2118449,44.9561998],[16.211861,44.9553641],[16.2116908,44.9549672],[16.209038,44.9530993],[16.2038526,44.9503821],[16.2011715,44.94943],[16.2004853,44.949009],[16.2001537,44.9484164],[16.2003446,44.9456308],[16.2009408,44.943874],[16.2021768,44.9422096],[16.2049838,44.9393787],[16.2078979,44.9370147],[16.2095359,44.9362465],[16.2128955,44.9352885],[16.2167174,44.9346056],[16.2188813,44.9323837],[16.2216681,44.9273018],[16.2225591,44.9253903],[16.2241535,44.921088],[16.2249909,44.918498],[16.2243445,44.9165459],[16.2243277,44.915571],[16.2259087,44.9118753],[16.2267059,44.9104875],[16.2284511,44.9084806],[16.2295866,44.9052067],[16.2316499,44.9039636],[16.2358169,44.9010833],[16.2370127,44.8974151],[16.2387143,44.8951942],[16.2402886,44.8944633],[16.2453967,44.8940433],[16.2477381,44.8924107],[16.2495871,44.8890719],[16.2511915,44.8870832],[16.2529132,44.8865516],[16.2566159,44.8874729],[16.2582976,44.8872937],[16.2625997,44.8843723],[16.2650316,44.8837908],[16.2716858,44.8816343],[16.2743788,44.8804802],[16.2790575,44.8799209],[16.2806811,44.8795466],[16.2839296,44.8775818],[16.2867712,44.87313],[16.2868739,44.8725299],[16.2890572,44.8685925],[16.2904538,44.8668283],[16.2916752,44.8663346],[16.2931452,44.866107],[16.2979949,44.8663155],[16.2996713,44.8662136],[16.3029018,44.8649514],[16.304073,44.8641454],[16.3049106,44.8631869],[16.3052251,44.8625812],[16.3066993,44.8586877],[16.3072086,44.8561959],[16.3072062,44.8541455],[16.3121279,44.8523733],[16.3134168,44.8515229],[16.3140087,44.8514484],[16.3139569,44.8474031],[16.3147707,44.8413513],[16.3152995,44.8398174],[16.3154658,44.8386632],[16.316038,44.8376752],[16.3188867,44.8369421],[16.3264674,44.8312768],[16.3281659,44.8284776],[16.3293396,44.8273395],[16.330705,44.8251765],[16.3320915,44.8233287],[16.3326791,44.8227776],[16.3376427,44.8207625],[16.3394812,44.8211246],[16.3469544,44.8207995],[16.3496722,44.8210695],[16.3522541,44.8221602],[16.3550447,44.8227329],[16.3577462,44.8235981],[16.3602887,44.8246449],[16.361659,44.8255944],[16.3631771,44.8269614],[16.3651149,44.8307227],[16.3665331,44.8323075],[16.3723397,44.833051],[16.3726914,44.8336876],[16.3731369,44.8351722],[16.3739056,44.8384014],[16.3743433,44.8469276],[16.3901197,44.8495073],[16.3945606,44.8521914],[16.3981349,44.8585383],[16.401039,44.8605363],[16.4155454,44.8650217],[16.4949204,44.8548367],[16.5097022,44.8527482],[16.517524,44.8480406],[16.5194523,44.8477764],[16.5255559,44.8476492],[16.5410564,44.8501916],[16.5611397,44.8487141],[16.5846945,44.8498764],[16.5875849,44.850498],[16.6116872,44.8573541],[16.6145932,44.8579754],[16.6235741,44.8506455],[16.6247405,44.8492563],[16.6223506,44.8451286],[16.6213455,44.8429417],[16.6210117,44.8410919],[16.6211642,44.839273],[16.6222752,44.8364794],[16.6249624,44.8336774],[16.6266474,44.8305598],[16.6285668,44.8276868],[16.6328844,44.8247929],[16.6357084,44.8217587],[16.6406289,44.8184467],[16.6435355,44.8153906],[16.6460763,44.8136041],[16.6477929,44.8127621],[16.6498906,44.8114517],[16.6532641,44.8098443],[16.6572902,44.80858],[16.6588235,44.8098467],[16.6652824,44.8137961],[16.6665856,44.8147235],[16.6675604,44.8156469],[16.6679468,44.8167926],[16.6677712,44.8180809],[16.6683842,44.8251751],[16.6875973,44.8241547],[16.7155825,44.8231151],[16.7183197,44.8227283],[16.7233401,44.8213176],[16.7347555,44.8165068],[16.7425181,44.81401],[16.752603,44.810016],[16.7564504,44.8083415],[16.7627431,44.8063381],[16.7700759,44.8027014],[16.7738823,44.8005826],[16.7769808,44.7978651],[16.7752199,44.7954339],[16.7779431,44.7853251],[16.7922221,44.7639155],[16.7970663,44.7579409],[16.8011338,44.751226],[16.799632,44.7392108],[16.7990082,44.726705],[16.795569,44.7134328],[16.802076,44.6939054],[16.8226562,44.6791982],[16.8390774,44.6736238],[16.8541437,44.6644903],[16.8577741,44.6619302],[16.8583349,44.6592556],[16.8538295,44.6398143],[16.8535915,44.6316604],[16.8538592,44.6282734],[16.8534934,44.6263961],[16.8523076,44.6225274],[16.8664097,44.6180393],[16.8728174,44.6154477],[16.8823822,44.6073174],[16.8842653,44.6032436],[16.8856475,44.5977478],[16.8851058,44.5950978],[16.8841102,44.5922762],[16.8803054,44.584523],[16.881111,44.575228],[16.8820672,44.5690826],[16.8824591,44.5653074],[16.893002,44.5533322],[16.9010005,44.5424293],[16.8938205,44.5296905],[16.8715603,44.5281023],[16.8683818,44.528025],[16.8368616,44.521487],[16.8342347,44.5206221],[16.834881,44.518187],[16.834825,44.5174569],[16.8361561,44.5113171],[16.8363488,44.5064062],[16.8355431,44.5048118],[16.8336022,44.502801],[16.8317896,44.5018954],[16.8295772,44.5010651],[16.8271855,44.5008743],[16.8047236,44.5008042],[16.8021837,44.5013373],[16.8012471,44.5026415],[16.7995523,44.503564],[16.7962073,44.5044865],[16.7943457,44.5045164],[16.7925601,44.5031733],[16.7916766,44.5009594],[16.7921841,44.4991349],[16.7900669,44.4975051],[16.7875767,44.4979205],[16.7785497,44.4986623],[16.7657627,44.5006397],[16.7505909,44.5045218],[16.7398869,44.5080842],[16.7247228,44.5101198],[16.7179436,44.5115829],[16.71277,44.5129823],[16.6967832,44.5145329],[16.6605446,44.5194598],[16.6514535,44.5215632],[16.6408604,44.5224581],[16.6302753,44.5230563],[16.6170272,44.5252111],[16.6063768,44.5248715],[16.5960742,44.5251264],[16.5770655,44.5261462],[16.5685391,44.5263547],[16.5559267,44.5273864],[16.5218124,44.5254356],[16.4995006,44.5249843],[16.494191,44.5246768],[16.48108,44.523112],[16.4487668,44.5098678],[16.4347704,44.507705],[16.4413077,44.4990566],[16.4426982,44.4960108],[16.4436952,44.4920301],[16.4464168,44.4790109],[16.4500238,44.4630925],[16.4267618,44.4731509],[16.415561,44.4762025],[16.4010875,44.4732826],[16.4001957,44.4733616],[16.3911575,44.4784068],[16.3863949,44.4778405],[16.3840137,44.4778405],[16.376076,44.4772741],[16.3721072,44.4750086],[16.3705197,44.4750086],[16.3578195,44.4761413],[16.3562319,44.4761413],[16.3490881,44.4778405],[16.3403567,44.4778405],[16.3316253,44.4840702],[16.329244,44.4846365],[16.3252751,44.4880342],[16.3149562,44.4908655],[16.3070186,44.4919979],[16.3006685,44.494829],[16.2943184,44.4959614],[16.2904463,44.4974958],[16.2887641,44.4943149],[16.2876415,44.4907115],[16.2859577,44.4887095],[16.2853964,44.4839044],[16.2837126,44.4803003],[16.2831513,44.478298],[16.2820288,44.4754946],[16.2797837,44.4730915],[16.2792224,44.4686857],[16.2786611,44.4662824],[16.2769773,44.4626772],[16.276416,44.4610748],[16.2786611,44.4558668],[16.2831513,44.453463],[16.2859577,44.4506584],[16.2870802,44.4470522],[16.2876415,44.4434459],[16.2904479,44.441843],[16.292693,44.4414423],[16.2966219,44.4390378],[16.2999896,44.4306215],[16.3011121,44.427415],[16.3005509,44.4242082],[16.3033572,44.4193978],[16.302796,44.4173934],[16.3005509,44.4157898],[16.2949381,44.4161907],[16.2932543,44.4169925],[16.2893253,44.4181952],[16.2859577,44.4157898],[16.2887641,44.4105778],[16.2915704,44.4069691],[16.2932543,44.4033603],[16.2943768,44.4001523],[16.2971832,44.3977461],[16.298867,44.3953399],[16.2999896,44.3925325],[16.2999896,44.3901261],[16.3016734,44.3873184],[16.3016734,44.3833072],[16.3022347,44.3804992],[16.3039185,44.3764876],[16.3056023,44.3740805],[16.3061636,44.3704696],[16.3078474,44.367661],[16.3078474,44.362846],[16.3100925,44.3584319],[16.3095313,44.3552214],[16.3061636,44.3475957],[16.3061636,44.3443846],[16.3056023,44.3423776],[16.3033572,44.3395677],[16.3033572,44.3355532],[16.2999896,44.3339474],[16.2960606,44.3331444],[16.2932543,44.3331444],[16.2910092,44.331137],[16.2848351,44.3215005],[16.2809062,44.3190912],[16.2769773,44.3190912],[16.2691194,44.3170833],[16.2651905,44.3190912],[16.2612616,44.3194927],[16.2595777,44.3202959],[16.2556488,44.3202959],[16.2505973,44.3198943],[16.2472297,44.318288],[16.2433007,44.3166817],[16.2427395,44.3134689],[16.2404944,44.3122641],[16.2388105,44.3086494],[16.2388105,44.3050345],[16.2382493,44.300616],[16.2360042,44.2990092],[16.2287076,44.2970006],[16.2259012,44.2957955],[16.2225335,44.2941885],[16.2191659,44.291778],[16.2208497,44.2897692],[16.2230948,44.2889657],[16.2264625,44.2873585],[16.2292688,44.2857514],[16.2303914,44.2841441],[16.2303914,44.2805278],[16.2320752,44.2777148],[16.2331978,44.2749018],[16.233759,44.2724905],[16.2365654,44.2692753],[16.2382493,44.2668638],[16.2360042,44.2668638],[16.2326365,44.2660599],[16.2298301,44.2660599],[16.2259012,44.2652561],[16.2197272,44.2624424],[16.215237,44.2584227],[16.2129918,44.2576187],[16.2096242,44.2556088],[16.2072658,44.2515055],[16.2069304,44.2512891],[16.2038065,44.2505621],[16.2024915,44.2500644],[16.2020421,44.2500816],[16.2013707,44.2505226],[16.2010751,44.2511234],[16.1999759,44.2517324],[16.1996348,44.252326],[16.1999281,44.2536575],[16.1998395,44.2542784],[16.2002786,44.2548324],[16.19982,44.2559587],[16.1998709,44.2562212],[16.2008029,44.2566573],[16.2009053,44.2569527],[16.2006482,44.2573574],[16.2001659,44.2575751],[16.1990805,44.2588832],[16.1978866,44.2591096],[16.1974549,44.2589701],[16.1964585,44.2595538],[16.1959293,44.2600515],[16.1957851,44.2603833],[16.1959112,44.2608179],[16.1957811,44.2615781],[16.1952248,44.2625138],[16.1947064,44.2628545],[16.1946656,44.2634292],[16.1949602,44.2643278],[16.1945783,44.2646413],[16.1945477,44.2650275],[16.1940294,44.265479],[16.1939945,44.2668885],[16.1937541,44.2673111],[16.1918046,44.2692339],[16.191899,44.2695261],[16.190977,44.2712789],[16.1911333,44.2721565],[16.1907263,44.2736345],[16.1907633,44.2746101],[16.190932,44.2747833],[16.1907561,44.2754539],[16.1910824,44.2755631],[16.1912,44.2759955],[16.190957,44.2769144],[16.191264,44.2771874],[16.1913348,44.2781306],[16.1915603,44.278441],[16.1913297,44.2786138],[16.1914428,44.27925],[16.1910233,44.2798011],[16.1913488,44.2811449],[16.1918634,44.2818472],[16.1922609,44.2835351],[16.1918046,44.2844399],[16.191913,44.2856909],[16.1916855,44.2859037],[16.1910777,44.2859376],[16.1909254,44.2861079],[16.1912307,44.2863754],[16.1912865,44.2866554],[16.1908495,44.2870048],[16.1907239,44.2876828],[16.1905203,44.2879173],[16.190912,44.2885849],[16.1905521,44.290032],[16.1908674,44.2900917],[16.1909114,44.2906825],[16.1906994,44.2909676],[16.190788,44.2911602],[16.1902836,44.2912763],[16.1898772,44.2917109],[16.189074,44.2919139],[16.1888067,44.2925596],[16.1882705,44.2929286],[16.1883658,44.2931841],[16.1880052,44.2935951],[16.1876849,44.2943741],[16.1871418,44.2947049],[16.1871373,44.296266],[16.1875431,44.2966988],[16.1872292,44.2972489],[16.1873199,44.3001567],[16.187787,44.3015592],[16.1878319,44.3022737],[16.1877306,44.3030786],[16.1875854,44.3031442],[16.1875356,44.3044368],[16.1878093,44.3051169],[16.1882514,44.3054375],[16.1880264,44.3061311],[16.1882572,44.3066552],[16.1880102,44.3074959],[16.1881286,44.3076612],[16.188571,44.3076819],[16.1882956,44.308245],[16.1887142,44.3095373],[16.1931628,44.312665],[16.1939395,44.3134901],[16.1950433,44.3155211],[16.1949443,44.3162389],[16.194368,44.3178453],[16.1947361,44.3198249],[16.1963034,44.3229206],[16.1971763,44.3255806],[16.1976894,44.326496],[16.1985863,44.3275525],[16.1991785,44.3285431],[16.1991739,44.3290848],[16.2005423,44.3310449],[16.2024623,44.3331132],[16.2039051,44.3344149],[16.2055262,44.3364981],[16.2068059,44.3369819],[16.2076324,44.3376498],[16.2096681,44.3382751],[16.2119342,44.3396861],[16.212867,44.3405278],[16.2162647,44.3414299],[16.2172324,44.3419443],[16.2183338,44.343088],[16.2181958,44.343499],[16.2177137,44.3435728],[16.2170598,44.3440574],[16.2187051,44.3481376],[16.2137368,44.3519763],[16.2116403,44.3524212],[16.2061864,44.3600637],[16.1983662,44.3631826],[16.1881222,44.3645193],[16.1881826,44.3646313],[16.1870261,44.3649876],[16.1856103,44.3648504],[16.1807487,44.3659797],[16.1801761,44.3659704],[16.1775646,44.3665397],[16.1774812,44.3667621],[16.1768379,44.3665972],[16.1761157,44.3669124],[16.1752764,44.3669346],[16.1748943,44.3673193],[16.1749813,44.3675878],[16.1745585,44.3680456],[16.1722423,44.3690066],[16.173111,44.3693142],[16.1729774,44.3694541],[16.171945,44.3691193],[16.171737,44.370247],[16.1700941,44.3722563],[16.1700245,44.3726215],[16.1687274,44.3748263],[16.1672596,44.3746012],[16.1662607,44.3742637],[16.1650997,44.3754823],[16.1644316,44.3764585],[16.1630085,44.3775025],[16.15895,44.3783724],[16.1586591,44.3788915],[16.1579433,44.3787394],[16.1573301,44.3795011],[16.1555053,44.3802349],[16.1549547,44.380094],[16.154451,44.3796597],[16.1541677,44.3793833],[16.154144,44.37909],[16.1533414,44.3785203],[16.1520745,44.3770932],[16.1508158,44.3770766],[16.1502497,44.377387],[16.1498486,44.377387],[16.1493685,44.3770316],[16.1469142,44.3765976],[16.1444835,44.3755485],[16.1440272,44.3755317],[16.1434766,44.3759154],[16.1433509,44.3763103],[16.1434769,44.376993],[16.1430364,44.3772016],[16.1421947,44.3771905],[16.1409677,44.3766377],[16.140173,44.3764628],[16.1389225,44.377061],[16.1348793,44.3773884],[16.1338804,44.3778623],[16.1313239,44.3780824],[16.1312688,44.3785619],[16.1305294,44.3794759],[16.1301517,44.3804068],[16.1300888,44.3808919],[16.1303484,44.381535],[16.1298764,44.3824828],[16.1297427,44.3831485],[16.1298921,44.3836112],[16.1303878,44.383882],[16.1301045,44.384779],[16.1294122,44.3857944],[16.1294987,44.3873459],[16.1293805,44.3877127],[16.1289636,44.388085],[16.128759,44.3887676],[16.1289399,44.3894164],[16.1295929,44.3900539],[16.1283734,44.3916504],[16.1289084,44.3919156],[16.1276416,44.3946405],[16.129168,44.3953401],[16.1308282,44.3958422],[16.1316229,44.3953119],[16.1334641,44.3949508],[16.1357067,44.3954979],[16.1386255,44.3928576],[16.1402227,44.3919943],[16.1413635,44.392028],[16.1420087,44.3922085],[16.1423314,44.3923551],[16.1432757,44.3934326],[16.1437793,44.3935736],[16.1458251,44.3935621],[16.14721,44.3937593],[16.1474146,44.3939454],[16.1475405,44.3945096],[16.1475015,44.3952204],[16.1488472,44.3956884],[16.1495398,44.3964669],[16.1500985,44.3967828],[16.1527504,44.3970812],[16.153734,44.3969965],[16.1539619,44.3963476],[16.1537019,44.3951799],[16.1539298,44.3946156],[16.1572738,44.3945529],[16.1592095,44.3950094],[16.1600676,44.3958047],[16.1615552,44.3967521],[16.1630349,44.3972425],[16.1637118,44.3976597],[16.1649481,44.39916],[16.1660501,44.3996167],[16.1662469,44.3998537],[16.1666412,44.4012074],[16.1675619,44.4014159],[16.1686791,44.4010149],[16.169411,44.4010429],[16.1697738,44.4023742],[16.1703957,44.4025714],[16.1709621,44.402182],[16.1712374,44.4021988],[16.1715761,44.4025429],[16.1723077,44.4022943],[16.1724259,44.4023846],[16.1723238,44.4026385],[16.1720327,44.4029207],[16.1718371,44.4045286],[16.1717036,44.4048615],[16.1711688,44.4053299],[16.1701382,44.4059227],[16.1695088,44.4060582],[16.1674151,44.4056358],[16.1668408,44.4059181],[16.1667464,44.4060817],[16.1670149,44.4076049],[16.1659451,44.4084289],[16.1653867,44.4090947],[16.165387,44.4095799],[16.1658991,44.4106234],[16.1654197,44.4114246],[16.1647044,44.4134163],[16.1629654,44.4142293],[16.1628948,44.4144663],[16.1630838,44.4148781],[16.1619353,44.4158543],[16.1615734,44.416396],[16.1606682,44.4163793],[16.1603532,44.4160973],[16.1602507,44.415725],[16.1598572,44.4157251],[16.1593773,44.4163853],[16.1585826,44.4169609],[16.1583945,44.4185858],[16.1578281,44.4193024],[16.1543494,44.4206853],[16.1538379,44.4211763],[16.1532794,44.4224344],[16.1528781,44.4226377],[16.1516185,44.4221753],[16.1501858,44.4223222],[16.1498155,44.4218596],[16.1496264,44.4209626],[16.1494295,44.4207539],[16.1482485,44.4203084],[16.1469575,44.4200717],[16.1462805,44.4194907],[16.1457765,44.4195078],[16.1450212,44.4207264],[16.1436518,44.4215446],[16.1433054,44.4220411],[16.1433133,44.4223119],[16.143518,44.4224359],[16.1451949,44.4230902],[16.145132,44.4233159],[16.1437075,44.4242243],[16.1421308,44.4249232],[16.1413146,44.4261428],[16.1409231,44.4279985],[16.1414646,44.4281681],[16.1415119,44.4289522],[16.1412838,44.429821],[16.1408587,44.4306335],[16.1406543,44.4323992],[16.1409773,44.4333414],[16.1406152,44.4336799],[16.1401666,44.4345487],[16.1395293,44.4378096],[16.1384588,44.4407321],[16.1385534,44.4412115],[16.1394276,44.4418886],[16.1416087,44.4424266],[16.1424555,44.4432137],[16.1419275,44.4438248],[16.1421683,44.4446674],[16.142846,44.445431],[16.142401,44.4464648],[16.1434058,44.4485395],[16.1421578,44.4503054],[16.1413208,44.4510965],[16.1407367,44.4528723],[16.1390752,44.4540291],[16.1364679,44.4535103],[16.1335105,44.4536587],[16.131275,44.4551775],[16.1312115,44.455401],[16.1315666,44.456222],[16.1326548,44.4570132],[16.1327183,44.4572295],[16.1325104,44.4590642],[16.1325855,44.4606629],[16.1330647,44.4610407],[16.1366384,44.4621875],[16.1374425,44.4630207],[16.1376363,44.4634901],[16.1376966,44.4638616],[16.1375042,44.4646879],[16.1367708,44.4659813],[16.1355728,44.4695359],[16.1354287,44.4702043],[16.1356624,44.4717866],[16.136673,44.472691],[16.1370205,44.4732241],[16.138116,44.4740079],[16.1396743,44.4756825],[16.1398814,44.4776202],[16.140404,44.479465],[16.1405948,44.4797425],[16.1411558,44.4799833],[16.1404869,44.4803457],[16.1379407,44.4827416],[16.1372819,44.4837532],[16.1297532,44.4866719],[16.1297732,44.4870094],[16.1302344,44.487554],[16.1318965,44.4885744],[16.1317675,44.4890801],[16.1318587,44.4897615],[16.1316249,44.4901024],[16.1312518,44.4900951],[16.131075,44.4904343],[16.1313632,44.491268],[16.131207,44.4917999],[16.130768,44.4927226],[16.1291835,44.4945975],[16.1277907,44.4951996],[16.1274699,44.4962008],[16.127083,44.4966779],[16.1255857,44.4976945],[16.1254991,44.4980236],[16.1239087,44.4998211],[16.1233126,44.5000189],[16.1233284,44.5007998],[16.1229355,44.5018099],[16.1220674,44.5038933],[16.1214234,44.504559],[16.1221686,44.5054018],[16.1219392,44.5059459],[16.1203825,44.507647],[16.1226849,44.5113817],[16.1220827,44.5134751],[16.1205663,44.5132034],[16.1206401,44.5142948],[16.1196541,44.5155849],[16.1186138,44.515677],[16.1178042,44.5167354],[16.1158992,44.5184223],[16.1154545,44.5194008],[16.1125462,44.5225546],[16.109469,44.5241248],[16.1079037,44.5255553],[16.1052902,44.5274406],[16.1004278,44.5287029],[16.0992102,44.5301432],[16.0963665,44.5301288],[16.0946255,44.5308361],[16.0935857,44.5319606],[16.0919602,44.5327364],[16.0850084,44.5343088],[16.0842594,44.5337143],[16.0836676,44.5342304],[16.0793021,44.5357128],[16.0730641,44.5364313],[16.0707514,44.5361332],[16.0699639,44.5367627],[16.0688236,44.5364348],[16.056464,44.5378202],[16.0531027,44.540169],[16.0530522,44.5405128],[16.0532737,44.5407881],[16.0505007,44.5425131],[16.0476918,44.5446617],[16.045818,44.5467643],[16.0292296,44.5562285],[16.0231978,44.5592641],[16.0220492,44.560306],[16.0186097,44.5627888],[16.0194745,44.5656381],[16.0194628,44.5676235],[16.0187936,44.5707961],[16.0185029,44.5739941],[16.0181266,44.5761839],[16.017357,44.5796348],[16.0165321,44.5818081],[16.0164227,44.5824961],[16.0165648,44.5839805],[16.0174522,44.5853454],[16.0181227,44.5856552],[16.0188308,44.5864199],[16.0208044,44.5872051],[16.0224311,44.589059],[16.0238138,44.5894423],[16.024349,44.5894857],[16.0260652,44.5888226],[16.0275653,44.5887464],[16.0296851,44.588151],[16.0335865,44.5883453],[16.0357136,44.5878667],[16.0383949,44.5883198],[16.0396964,44.5882947],[16.0412542,44.5887667],[16.043803,44.5920199],[16.0451667,44.5933336],[16.0453604,44.5938136],[16.0462979,44.5938385],[16.0471118,44.5946887],[16.0482583,44.5954195],[16.0492718,44.5959475],[16.0511016,44.5963724],[16.0466218,44.5981419],[16.0441536,44.5984596],[16.0431684,44.5999145],[16.0430964,44.600545],[16.044111,44.6008727],[16.0478228,44.6029791],[16.0483559,44.6040999],[16.0475279,44.6056058],[16.0473884,44.6068493],[16.0467832,44.6078013],[16.0466627,44.6087052],[16.049053,44.6093306],[16.0506629,44.6095673],[16.0521386,44.6095469],[16.0524758,44.6094091],[16.0535772,44.6080718],[16.0535983,44.6079142],[16.053362,44.6077675],[16.0544395,44.60723],[16.0550866,44.6067116],[16.0549828,44.6065954],[16.0554533,44.6064909],[16.055685,44.6067063],[16.0563471,44.6066422],[16.0565646,44.6070142],[16.0580042,44.608233],[16.0580177,44.6085642],[16.0577024,44.609118],[16.055818,44.6106757],[16.0552187,44.611379],[16.0547927,44.6122624],[16.0548433,44.6130301],[16.0555197,44.6152734],[16.0552607,44.6239666],[16.0549068,44.6253632],[16.0545759,44.6256788],[16.0524561,44.6263762],[16.0513196,44.6264377],[16.0508661,44.6262708],[16.0495981,44.6247248],[16.0492479,44.6245127],[16.0483199,44.6247092],[16.0453842,44.6268691],[16.0441758,44.6279454],[16.0429169,44.629425],[16.0426125,44.630828],[16.0430176,44.6327361],[16.0429851,44.6333941],[16.0425002,44.6359383],[16.0410968,44.6382721],[16.0390181,44.6410896],[16.0360491,44.6431535],[16.0349493,44.6442955],[16.032373,44.6475773],[16.0320095,44.6482439],[16.0318508,44.6529976],[16.031542,44.6535965],[16.0303072,44.6543803],[16.0277949,44.6553513],[16.0260771,44.6555841],[16.0213769,44.6569129],[16.0205786,44.6568958],[16.0191975,44.6565733],[16.0140198,44.6547314],[16.0129659,44.6544853],[16.0121197,44.6545805],[16.0102688,44.6559785],[16.0081611,44.6566344],[16.0069816,44.6571723],[16.0043131,44.6576295],[16.0006025,44.6590622],[15.9984898,44.659675],[15.9970429,44.6597698],[15.9965986,44.6599561],[15.9950677,44.6612875],[15.9940654,44.6618398],[15.9937977,44.6629812],[15.9930714,44.6640425],[15.992322,44.6646151],[15.9889699,44.6664918],[15.9883509,44.6669541],[15.9878312,44.6676971],[15.987081,44.6682288],[15.9838437,44.6695052],[15.9825411,44.6698471],[15.9800029,44.6698259],[15.9771314,44.6704052],[15.9764682,44.670726],[15.9744984,44.6722059],[15.9732891,44.6728134],[15.9722223,44.6737698],[15.97151,44.6749989],[15.9680209,44.6782243],[15.9677798,44.6786169],[15.9677042,44.6791825],[15.9680457,44.680725],[15.9685385,44.6820406],[15.9684713,44.6829435],[15.9677985,44.6847257],[15.9667201,44.686326],[15.9660503,44.6876493],[15.9659897,44.6902142],[15.9656203,44.6910333],[15.9645698,44.691811],[15.9639385,44.6920353],[15.9626585,44.6922789],[15.9592123,44.6925173],[15.9568549,44.6956728],[15.9539565,44.6984099],[15.9532843,44.6995876],[15.9527612,44.7008527],[15.9528039,44.7014036],[15.9531811,44.7019495],[15.9536261,44.7022466],[15.9556428,44.7028057],[15.9561108,44.7033029],[15.9565778,44.7049066],[15.9563348,44.7073499],[15.9556561,44.7084684],[15.9557197,44.7100028],[15.9554115,44.7106527],[15.9543771,44.7112565],[15.9527164,44.7115371],[15.948039,44.7115237],[15.9474827,44.7114571],[15.9478982,44.7111182],[15.9472636,44.7108997],[15.9453189,44.7110084],[15.937379,44.7107449],[15.9326409,44.7074686],[15.9312175,44.7080781],[15.9297015,44.7096792],[15.9280118,44.7133262],[15.9263408,44.7176748],[15.9220232,44.7205256],[15.9196143,44.7237226],[15.918882,44.7243285],[15.9185992,44.7248634],[15.9187928,44.7255499],[15.9161804,44.7265552],[15.9156958,44.7281709],[15.9147341,44.7288613],[15.9132423,44.7305593],[15.9138133,44.7310593],[15.9131433,44.7316977],[15.9122871,44.7331807],[15.9072406,44.7363595],[15.904504,44.7377828],[15.9037544,44.7403503],[15.9014159,44.7414537],[15.901266,44.7416552],[15.9017273,44.7439261],[15.9024444,44.7455374],[15.90206,44.7457628],[15.9009836,44.7458378],[15.9001616,44.7461736],[15.8978358,44.7459816],[15.8962491,44.7466346],[15.8946161,44.7486823],[15.8944723,44.7494161],[15.8904346,44.7473037],[15.8892897,44.7473773],[15.8886136,44.7444129],[15.8837905,44.7439455],[15.8841872,44.7345452],[15.8815188,44.7327521],[15.8808336,44.7290888],[15.8791389,44.728269],[15.8753526,44.7287558],[15.8734415,44.7307796],[15.8729727,44.7295756],[15.8739824,44.728269],[15.8726121,44.7268856],[15.8651218,44.7290796],[15.864153,44.7301423],[15.8641777,44.7311739],[15.8648778,44.7324708],[15.8644277,44.7329607],[15.8631103,44.7331179],[15.8632598,44.7333522],[15.8648441,44.7331799],[15.86559,44.732512],[15.8651482,44.7333343],[15.8614999,44.734946],[15.8602437,44.7358644],[15.8528695,44.7362743],[15.8493357,44.7335078],[15.8493177,44.7299854],[15.8473704,44.7271418],[15.8424303,44.7231707],[15.8350734,44.7140572],[15.8318566,44.7158397],[15.8311158,44.7181576],[15.8239091,44.720428],[15.8219921,44.7215209],[15.8145563,44.7290248],[15.8151332,44.732624],[15.814394,44.734763],[15.8124991,44.737252],[15.8100849,44.7392135],[15.8061148,44.7397106],[15.8022239,44.7433692],[15.7886295,44.7458663],[15.7815438,44.7499127],[15.7812622,44.7543268],[15.7790639,44.7571276],[15.7751277,44.761603],[15.7732139,44.763458],[15.7712835,44.765826],[15.7709279,44.7669942],[15.770912,44.7682958],[15.7705031,44.7703267],[15.7695218,44.7719279],[15.7688086,44.7722501],[15.7678077,44.7732145],[15.7655295,44.7749327],[15.7638524,44.7758279],[15.7627078,44.7768123],[15.7618078,44.7773264],[15.7617533,44.7781755],[15.7621447,44.7791588],[15.7617321,44.7805979],[15.7611525,44.7810949],[15.7600553,44.7815152],[15.7587393,44.7824906],[15.7562204,44.7848731],[15.7559851,44.7853501],[15.7560868,44.785732],[15.7501395,44.7920635],[15.7467551,44.7954137],[15.7400595,44.8002609],[15.7427583,44.8092328],[15.7286823,44.8254901],[15.7476503,44.8269546],[15.761758,44.8296057],[15.780529,44.839564],[15.7929384,44.8428969],[15.7934601,44.8434227],[15.793428,44.8436657],[15.7939037,44.8443718],[15.7945207,44.8449174],[15.7945892,44.8454198],[15.793263,44.8466115],[15.760233,44.8696378],[15.760147,44.8745834],[15.7599039,44.8769763],[15.7602208,44.8873699],[15.758465,44.8927123],[15.7568922,44.8966038],[15.7544769,44.9034259],[15.7489619,44.9143692],[15.7479665,44.9154191],[15.7472204,44.9170978],[15.7459126,44.9189385],[15.7429896,44.9267715],[15.7406697,44.932088],[15.7400311,44.9327872],[15.7399748,44.9338597],[15.7393986,44.9351344],[15.7380327,44.9355202],[15.7366951,44.9356359],[15.7363409,44.9359285],[15.7383273,44.9370102],[15.7400789,44.9397121],[15.7410781,44.9406786],[15.7422135,44.9413883],[15.7432236,44.9417328],[15.7432328,44.9423204],[15.7444537,44.9450449],[15.7455445,44.9459827],[15.7467813,44.9465685],[15.7472839,44.9472087],[15.7472188,44.9475601],[15.7480272,44.9493051],[15.7484254,44.9497165],[15.7498549,44.95049],[15.7497149,44.9514178],[15.7491327,44.9519661],[15.748505,44.9529107],[15.7463327,44.9539823],[15.7455764,44.9547883],[15.7460996,44.9560402],[15.7457769,44.9575452],[15.7462281,44.9581272],[15.7454973,44.9604223],[15.7455743,44.9609798],[15.7459603,44.9614226],[15.7464964,44.9617026],[15.7479116,44.9637379],[15.7476557,44.964464],[15.7483672,44.966109],[15.7486749,44.967283],[15.7500515,44.9682909],[15.7509392,44.9683138],[15.7517057,44.9685787],[15.7535064,44.9697732],[15.7550537,44.9703035],[15.7568774,44.9698055],[15.7582204,44.969143],[15.7600209,44.9691085],[15.760448,44.9694622]]]}}]}